cnpj;razao_social;nome_fantasia;end_logradouro;end_numero;end_complemento;end_bairro;mun_descricao;end_uf;end_cep;telefone1;telefone2;telefone3;qtde_func;faixa_faturamento;cnae;cnae_denominacao;pri_produto;e-mail;site;principal_executivo;cargo;cadastro;atualizacao;Endereço;geolocalizacao;latitude;longitude
02.119.258/0002-18;Fertipar Fertilizantes do Nordeste Ltda;Fertipar;Via Matoim;S/N;CIA Norte;Distrito Industrial;Candeias;BA;43813000;(41) 3026-9009;;;213;500.000.001,00 a 1.000.000.000,00;C2013402;Fabricação de adubos e fertilizantes, exceto organominerais;Adubo e fertilizante;controladoria@fertipar.com.br;www.fertipar.com.br;Alceu Feldmann;Presidente;2000-08-21 00:00:00;2023-03-21 00:00:00;Via Matoim, S/N, CIA Norte, Distrito Industrial, Candeias, BA;Distrito Industrial, Candeias - BA, 43820-270, Brazil;-12.6654769;-38.5311981
01.002.047/0003-19;Plumatex Colchoes Industrial Ltda;Plumatex;Rod BA-522 Km 01;S/N;;Distrito Industrial;Candeias;BA;43813000;(71) 2108-6300;(62) 4014-1644;(62) 4014-1616;176;50.000.001,00 a 100.000.000,00;C3104700;Fabricação de colchões;Colchao de espuma, Colchao de mola, Lamina poliuretano, Cama acoplada, Colchobox;recepcaoba@plumatex.com.br;www.plumatex.com.br;Rafael Miguel de Melo;Diretor Comercial;2000-08-22 00:00:00;2022-10-14 00:00:00;Rod BA-522 Km 01, S/N, Distrito Industrial, Candeias, BA;BA-522, Bahia, Brazil;-12.6678095;-38.5497377
61.156.501/0086-45;Mosaic Fertilizantes do Brasil Ltda;Mosaic;Rod BA-522 Km 01;S/N;Cx Postal 22;Distrito Industrial;Candeias;BA;43813000;(71) 3118-2165;(71) 3118-2150;;29;25.000.001,00 a 50.000.000,00;C2013402;Fabricação de adubos e fertilizantes, exceto organominerais;Adubo e fertilizante (NPK), Adubo e fertilizante (PK), Cloreto de potassio coarse e standart 60% K2O, Adubo e fertilizante (NK), Ureia 45% N, Superfosfato simples;;www.mosaicco.com.br;Floris Eduard Alexsander Bielders;Presidente;2000-08-22 00:00:00;2022-09-19 00:00:00;Rod BA-522 Km 01, S/N, Cx Postal 22, Distrito Industrial, Candeias, BA;BA-522, Bahia, Brazil;-12.6678095;-38.5497377
27.515.154/0012-25;Proquigel Quimica S/A;Policarbonatos;Via Matoim;S/N;Fazenda Caroba;Distrito Industrial;Candeias;BA;43813000;(71) 3878-6550;;;260;1.000.000.001,00 a 9.999.999.999,00;C2022300;Fabricação de intermediários para plastificantes, resinas e fibras;Metacrilato de metila (MMA), Metacrilato de etila (EMA), Sulfato de amonio (SA), Cianeto de sodio (NaCn);mauro.duarte@unigel.com.br;www.unigel.com.br;Roberto Noronha Santos;Presidente;2000-10-04 00:00:00;2023-11-22 00:00:00;Via Matoim, S/N, Fazenda Caroba, Distrito Industrial, Candeias, BA;R. do Passé, 22 - Centro, Candeias - BA, 43805-090, Brazil;-12.6726357;-38.5430763
02.402.478/0001-73;Unigel Plasticos S/A;Unigel;Via Matoim;S/N;Fazenda Caroba;Distrito Industrial;Candeias;BA;43813000;(71) 3878-6334;(71) 3878-6335;;15;50.000.001,00 a 100.000.000,00;C2229399;Fabricação de artefatos de material plástico para outros usos não especificados anteriormente;Chapa acrilica, Chapa acrilica extrusada, Resina perola, Resina granulada;mauro.duarte@unigel.com.br;www.unigel.com.br;Roberto Noronha Santos;Presidente;2000-10-04 00:00:00;2023-07-14 00:00:00;Via Matoim, S/N, Fazenda Caroba, Distrito Industrial, Candeias, BA;R. do Passé, 22 - Centro, Candeias - BA, 43805-090, Brazil;-12.6726357;-38.5430763
60.435.351/0017-14;Dow Brasil Industria e Comercio de Produtos Quimicos Ltda;Dow Brasil;Via Matoim;S/N;Rotula 3;Distrito Industrial;Candeias;BA;43813000;(71) 3649-5000;(71) 3649-5145;(71) 3649-5426;220;1.000.000.001,00 a 9.999.999.999,00;C2029100;Fabricação de produtos químicos orgânicos não especificados anteriormente;Oxido de propeno, Propileno glicol (MPG + DPG);cvargens@dow.com;www.dow.com;Gregore Ton Oliveira;Diretor de Producao;2000-10-17 00:00:00;2022-08-05 00:00:00;Via Matoim, S/N, Rotula 3, Distrito Industrial, Candeias, BA;Distrito Industrial, Candeias - BA, 43820-270, Brazil;-12.6654769;-38.5311981
01.055.418/0001-69;NMS Servicos Ltda;NMS;Rod BA-522 Km 07;S/N;;Distrito Industrial;Candeias;BA;43813000;(71) 2108-9575;(71) 98659-1190;;11;1.500.001,00 a 3.000.000,00;C1623400;Fabricação de artefatos de tanoaria e de embalagens de madeira;Palete, Caixa de madeira;nmsltda@gmail.com;;Luana Dantas da Luz Santos;Socia Gerente;2002-03-14 00:00:00;2024-01-02 00:00:00;Rod BA-522 Km 07, S/N, Distrito Industrial, Candeias, BA;BA-522, Bahia, Brazil;-12.6678095;-38.5497377
01.551.923/0001-02;Lazal Estruturas Metalicas Ltda;Lazal;Rodovia do Asfalto Candeias Sao Sebastiao do Passe;920;;Distrito Industrial;Candeias;BA;43813300;(71) 3339-5948;(71) 3339-5923;(71) 98870-1646;10;720.001,00 a 1.500.000,00;C2521700;Fabricação de tanques, reservatórios metálicos e caldeiras para aquecimento central;Tanque, Reservatorio, Estrutura metalica;registroslegais@petrobahia.com.br;www.petrobahia.com.br;Joao Manoel Ramos D Amaral;Socio Administrador;2012-07-19 00:00:00;2023-07-04 00:00:00;Rodovia do Asfalto Candeias Sao Sebastiao do Passe, 920, Distrito Industrial, Candeias, BA;Distrito Industrial, Candeias - BA, 43820-270, Brazil;-12.6654769;-38.5311981
00.331.788/0020-81;Air Liquide Brasil Ltda;Air Liquide;Estrada Matoim, Rotula 3;S/N;;Distrito Industrial;Candeias;BA;43813000;(71) 3191-1991;;;7;720.001,00 a 1.500.000,00;C2014200;Fabricação de gases industriais;Nitrogenio medicinal, Oxigenio medicinal, Oxigenio, Nitrogenio industrial;cristiana.silva@airliquide.com;www.airliquide.com.br;Fernando Bononi Junior;Diretor Administrativo Financeiro;2013-12-18 00:00:00;2023-02-24 00:00:00;Estrada Matoim, Rotula 3, S/N, Distrito Industrial, Candeias, BA;Distrito Industrial, Candeias - BA, 43820-270, Brazil;-12.6654769;-38.5311981
10.441.875/0001-82;UTE MC2 Camacari 1 S/A;UTE MC2 Camacari 1 S/A;Via Matoim, Braco BC;S/N;Parte I;Distrito Industrial;Candeias;BA;43813000;(71) 3525-8050;;;170;1.500.001,00 a 3.000.000,00;D3511501;Geração de energia elétrica;Captacao de energia;;;Fernando Teixeira Alves;Coordenador de Engenharia;2013-04-11 00:00:00;;Via Matoim, Braco BC, S/N, Parte I, Distrito Industrial, Candeias, BA;Distrito Industrial, Candeias - BA, 43820-270, Brazil;-12.6654769;-38.5311981
60.479.813/0001-38;Graftech Brasil Participacoes Ltda;Graftech;Rod BA-522 Km 07;S/N;;Distrito Industrial;Candeias;BA;43813300;(71) 2108-9480;(71) 2108-9616;;37;250.000.001,00 a 500.000.000,00;C2790201;Fabricação de eletrodos, contatos e outros artigos de carvão e grafita para uso elétrico, eletroímãs e isoladores;Eletrodo de grafita, Niple de grafita;graftechbrasil_nfe@graftech.com;www.graftech.com;Ualace Carvalho Marques Porto;Presidente;2014-05-09 00:00:00;2023-10-24 00:00:00;Rod BA-522 Km 07, S/N, Distrito Industrial, Candeias, BA;BA-522, Bahia, Brazil;-12.6678095;-38.5497377
17.848.459/0001-42;Sol Placas Ltda;Sol Placas;Rodovia BA-522;S/N;Fazenda Mamao;Distrito Industrial;Candeias;BA;43813300;(75) 99921-3339;;;1;0,00 a 120.000,00;C3299003;Fabricação de letras, letreiros e placas de qualquer material, exceto luminosos;Placa automotiva;solplacas71@gmail.com;;Maria Soledade Alcantara de Almeida;Proprietaria;2015-03-06 00:00:00;2023-08-24 00:00:00;Rodovia BA-522, S/N, Fazenda Mamao, Distrito Industrial, Candeias, BA;BA-522, Bahia, Brazil;-12.6678095;-38.5497377
12.901.925/0001-92;ERB Aratinga S/A (Em Recuperacao Judicial);ERB Agroflorestal;Rodovia Matoim;S/N;Rotula 3;Distrito Industrial;Candeias;BA;43813000;(11) 94502-6186;(71) 3204-0550;(71) 99815-3396;60;100.000.001,00 a 250.000.000,00;D3530100;Produção e distribuição de vapor, água quente e ar condicionado;Energia eletrica por queima de biomassa;notifica@erbrasil.com.br;www.erbrasil.com.br;Denrik Paoli de Jesus;Diretor de Operacoes;2015-04-28 00:00:00;2023-05-11 00:00:00;Rodovia Matoim, S/N, Rotula 3, Distrito Industrial, Candeias, BA;Distrito Industrial, Candeias - BA, 43820-270, Brazil;-12.6654769;-38.5311981
22.266.175/0046-80;Fertilizantes Heringer S/A;Heringer;Rodovia BR-324;7131;Km 30 ao 39 Cx Postal 99;Distrito Industrial;Candeias;BA;43813400;(71) 3878-7000;(71) 3878-7007;;167;50.000.001,00 a 100.000.000,00;C2013402;Fabricação de adubos e fertilizantes, exceto organominerais;Formulacao de fertilizantes 02-20-20, 04-14-08, 20-00-20 entre outros;silvio.silva@heringer.com.br;www.heringer.com.br;Thiago Ferreira;Gerente Comercial;2015-05-06 00:00:00;2022-10-27 00:00:00;Rodovia BR-324, 7131, Km 30 ao 39 Cx Postal 99, Distrito Industrial, Candeias, BA;Rod. Eng. Vasco Filho, 7131 - 30 ao 39 cx - Lot. Recanto dos Eucaliptos, Simões Filho - BA, 43700-000, Brazil;-12.7597801;-38.4259476
11.181.610/0001-55;J C Bulcao Inspecoes Tecnicas;Bulcao Inspecoes;Rod BA-552;S/N;Andar 1, Sala 24;Distrito Industrial;Candeias;BA;43813300;(71) 3605-4449;(71) 98203-0319;;8;120.001,00 a 720.000,00;C3311200;Manutenção e reparação de tanques, reservatórios metálicos e caldeiras, exceto para veículos;Manutencao e reparacao de caldeiras;jcbulcao@hotmail.com.br;www.jcbulcao.com.br;Julio Bulcao;Proprietario;2017-05-18 00:00:00;2022-11-08 00:00:00;Rod BA-552, S/N, Andar 1, Sala 24, Distrito Industrial, Candeias, BA;R. Bahia - Nova Candeias, Candeias - BA, 43815-200, Brazil;-12.6642217;-38.5354328
12.447.077/0001-93;Brasil Asfaltos Ltda;Brasil Asfaltos Ltda;Rod BA-522 Km 1;S/N;;Distrito Industrial;Candeias;BA;43813300;(71) 3118-2100;(71) 3118-2107;;39;250.000.001,00 a 500.000.000,00;C2099199;Fabricação de outros produtos químicos não especificados anteriormente;Aditivo para microrrevestimento, Asfalto modificado, Dope de adesividade de asfaltos, Emulsoes asfalticas modificadas e convencionais, Asfalto morno;contabilidade@brasquimica.com.br;www.brasquimica.com.br;Debora Pinon Lucas;Socia;2017-05-23 00:00:00;2023-04-06 00:00:00;Rod BA-522 Km 1, S/N, Distrito Industrial, Candeias, BA;BA-522, Bahia, Brazil;-12.6678095;-38.5497377
00.117.842/0005-51;Cibrafertil Companhia Brasileira de Fertilizantes;Cibra;Via Matoim;S/N;Braco BC - CIA Norte;Distrito Industrial;Candeias;BA;43813000;(71) 2202-4200;(71) 2202-4255;;43;500.000.001,00 a 1.000.000.000,00;C2013402;Fabricação de adubos e fertilizantes, exceto organominerais;Misturas de NPK, NP e PK;walderique.oliveira@cibra.com;www.cibra.com;Santiago Franco Jaramillo;Diretor Presidente;2016-08-16 00:00:00;2023-03-22 00:00:00;Via Matoim, S/N, Braco BC - CIA Norte, Distrito Industrial, Candeias, BA;Distrito Industrial, Candeias - BA, 43820-270, Brazil;-12.6654769;-38.5311981
10.508.162/0001-99;Companhia Energetica Candeias;Companhia Energetica Candeias;Via Matoim;S/N;;Distrito Industrial;Candeias;BA;43813000;(71) 3555-5950;(71) 3273-5300;(71) 3555-5992;41;250.000.001,00 a 500.000.000,00;D3511501;Geração de energia elétrica;Energia termoeletrica;comprascandeias@cec-termoeletrica.com.br;www.globalparticipacoesenergia.com.br;Jarbas Rodrigues Benevides;Diretor Financeiro;2018-03-16 00:00:00;2023-04-19 00:00:00;Via Matoim, S/N, Distrito Industrial, Candeias, BA;Distrito Industrial, Candeias - BA, 43820-270, Brazil;-12.6654769;-38.5311981
07.066.019/0001-80;Fertimar Mineracao e Navegacao S/A;PrimaSea;Via Candeias, BA-522 Km 6;S/N;Galpao A, Cx Postal 180;Distrito Industrial;Candeias;BA;43813000;(71) 3342-1985;(71) 99605-2728;(71) 99994-0588;60;25.000.001,00 a 50.000.000,00;B0891600;Extração de minerais para fabricação de adubos, fertilizantes e outros produtos químicos;Adubo organico, Nutrientes para racao animal, Fertilizante;ronne.furlan@primasea.com.br;www.primasea.com.br;Jose Camelo Silveira Neto;CEO;2018-04-16 00:00:00;2022-10-26 00:00:00;Via Candeias, BA-522 Km 6, S/N, Galpao A, Cx Postal 180, Distrito Industrial, Candeias, BA;BA-522, 10 - Nova Brasília, Candeias - BA, 43813, Brazil;-12.6643605;-38.5289193
12.901.925/0021-36;ERB Aratinga S/A (Em Recuperacao Judicial);ERB Agroflorestal;Via Matoim;S/N;Rotula 3;Distrito Industrial;Candeias;BA;43813000;(71) 3204-0550;(71) 99930-7078;(71) 98153-3968;39;3.000.001,00 a 6.000.000,00;C1629301;Fabricação de artefatos diversos de madeira, exceto móveis;Energia eletrica por queima de biomassa;fiscal@erbrasil.com.br;www.erbrasil.com.br;Jacqueline Vercosa de Oliveira;Diretora Estatutaria;2018-06-20 00:00:00;2023-09-14 00:00:00;Via Matoim, S/N, Rotula 3, Distrito Industrial, Candeias, BA;Distrito Industrial, Candeias - BA, 43820-270, Brazil;-12.6654769;-38.5311981
05.746.147/0002-20;Sousa e Reale Ltda;Marmoraria Brasil;Rodovia BA-522;9620;Terreo, Quadra 0;Distrito Industrial;Candeias;BA;43813300;(71) 3396-2442;;;0;0,00 a 120.000,00;C2391503;Aparelhamento de placas e execução de trabalhos em mármore, granito, ardósia e outras pedras;Bancada, Soleira;marmoraria_brasil@hotmail.com;;Adneia Reale dos Santos;Socia Administradora;2018-08-21 00:00:00;2022-08-16 00:00:00;Rodovia BA-522, 9620, Terreo, Quadra 0, Distrito Industrial, Candeias, BA;BA-522, 9620 - Quadra 0 - Candeias, BA, Brazil;-12.6655422;-38.5195736
58.681.867/0005-63;Viapol Ltda;Viapol;Rod BA-522 Km 03;S/N;;Distrito Industrial;Candeias;BA;43813300;(71) 3118-2020;(71) 3118-2001;(71) 3118-2017;83;50.000.001,00 a 100.000.000,00;C2073800;Fabricação de impermeabilizantes, solventes e produtos afins;Argamassa polimerica, Aditivo, Emulsao asfaltica, Primer, Manta asfaltica;viapol@viapol.com.br;www.viapol.com.br;Ariovaldo Jose Torelli;Presidente;2020-09-04 00:00:00;2022-11-29 00:00:00;Rod BA-522 Km 03, S/N, Distrito Industrial, Candeias, BA;BA-522, Bahia, Brazil;-12.6678095;-38.5497377
60.869.336/0228-62;CSN Cimentos Brasil S/A;;Via das Torres;7296;;Distrito Industrial;Candeias;BA;43813100;(71) 3602-8601;;;61;50.000.001,00 a 100.000.000,00;C2320600;Fabricação de cimento;Producao de cimento (aplicacoes diversas), Concreto, Agregados para construcao civil;cynthia.pimentel@csn.com.br;www.csn.com.br/cimento;Edvaldo Araujo Rabelo;Diretor Operacional;2021-06-01 00:00:00;2023-05-19 00:00:00;Via das Torres, 7296, Distrito Industrial, Candeias, BA;Distrito Industrial, Candeias - BA, 43820-270, Brazil;-12.6654769;-38.5311981
10.904.646/0001-57;Fortal Industria e Comercio S/A;Fortal;Via das Torres;S/N;;Distrito Industrial;Candeias;BA;43813100;(71) 99201-1163;(11) 3048-8729;;140;25.000.001,00 a 50.000.000,00;C2032100;Fabricação de resinas termofixas;Acido cloridrico, Hidroxipropilmetilcelulose (HPMC), Cloreto de metila, Sulfato de potassio, Propilenoglicol, Propilenoglicol metil eter;jair.vacaro@formitex.com.br;https://fortalquimica.com.br/;Ronaldo Isac Werthjam;Socio Diretor;2021-06-29 00:00:00;2023-12-27 00:00:00;Via das Torres, S/N, Distrito Industrial, Candeias, BA;Distrito Industrial, Candeias - BA, 43820-270, Brazil;-12.6654769;-38.5311981
13.776.699/0001-28;Valobras Industria Ltda;;Via Matoim;S/N;BA-524 Km 21;Distrito Industrial;Candeias;BA;43813000;(71) 4009-4914;;;69;25.000.001,00 a 50.000.000,00;C2320600;Fabricação de cimento;Cimento;administrativo@valobras.com.br;http://valobras.com.br/;Flavio Luiz Marques Gomes;Socio;2022-08-24 00:00:00;2023-10-26 00:00:00;Via Matoim, S/N, BA-524 Km 21, Distrito Industrial, Candeias, BA;BA-524, Candeias - BA, Brazil;-12.7101339;-38.4477439
32.176.970/0001-39;F A Garcia Industria de Parafinas;FMG Parafinas;Rodovia BA-522;4252;Galpao C;Distrito Industrial;Candeias;BA;43813300;(14) 99745-4235;(14) 99724-4451;(71) 3602-9576;14;25.000.001,00 a 50.000.000,00;C1922599;Fabricação de outros produtos derivados do petróleo, exceto produtos do refino;Parafina a granel, Parafina em tablete, Parafina em lentilha, Vela;financeiro@fmgparafinas.com.br;https://fmgparafinas.com.br/;Fernando Augusto Garcia;Diretor;2023-09-28 00:00:00;;Rodovia BA-522, 4252, Galpao C, Distrito Industrial, Candeias, BA;BA-522, 4252 - Candeias, BA, Brazil;-12.6698564;-38.5140057
12.626.311/0001-40;Otacisio de Oliveira Damiao;Oliveira Pre-Moldados;Rua Walter Ernesto;09;Galpao;Alegre/CIA Sul;Simoes Filho;BA;43700000;(71) 3397-3589;(71) 3397-3428;(71) 98547-3219;13;720.001,00 a 1.500.000,00;C2330302;Fabricação de artefatos de cimento para uso na construção;Bloco, Laje, Estaca, Poste, Cobogo, Calha;damiao2009dmc@hotmail.com;;Otacisio de Oliveira Damiao;Socio Majoritario;2018-12-14 00:00:00;2022-12-29 00:00:00;Rua Walter Ernesto, 09, Galpao, Alegre/CIA Sul, Simoes Filho, BA;R. Walter Ernesto, 9, Simões Filho - BA, 43700-000, Brazil;-12.8352631;-38.3992156
23.647.365/0007-01;Bauminas Quimica N/NE Ltda;Bauminas Quimica N/NE Ltda;Via Periferica II;2485-A;;CIA;Simoes Filho;BA;43700971;(71) 3594-2050;(71) 3594-2053;(71) 3594-2055;92;100.000.001,00 a 250.000.000,00;C2099199;Fabricação de outros produtos químicos não especificados anteriormente;Sulfato de aluminio liquido, Policloreto de aluminio, Sulfato ferrico, Sulfato de aluminio solido;luiz.carlos@bauminas.com.br;www.bauminas.com.br;Luiz Carlos dos Santos;Gerente Regional;2015-09-01 00:00:00;2023-11-24 00:00:00;Via Periferica II, 2485-A, CIA, Simoes Filho, BA;Via Periférica 2, 2485 - a, Simões Filho - BA, 43700-000, Brazil;-12.8095229;-38.4457904
09.571.106/0001-10;Industria Metalurgica Lugger Ltda;Lugger Metalurgica;Via Periferica II;1005;;CIA;Simoes Filho;BA;43700000;(71) 99194-2689;(71) 99367-0174;;25;720.001,00 a 1.500.000,00;C3102100;Fabricação de móveis com predominância de metal;Estrutura porta-paletes, Arquivo deslizante, Gondola para mercado;atendimento@lugger.com.br;www.lugger.com.br;Catiane Monteiro da Cruz;Socia Administradora;2017-10-18 00:00:00;2023-12-28 00:00:00;Via Periferica II, 1005, CIA, Simoes Filho, BA;Via Periférica 2, 1005 - Cia Sul, Simões Filho - BA, 43700-000, Brazil;-12.817831;-38.436831
02.271.201/0006-63;Asperbras Tubos e Conexoes Ltda;Asperbras Rotomoldagem;Via de Penetracao I;590-B;;CIA;Simoes Filho;BA;43700000;(71) 2106-4000;(71) 2106-4020;(71) 2106-4009;120;6.000.001,00 a 12.000.000,00;C2221800;Fabricação de laminados planos e tubulares de material plástico;Poco de visita em PVC, Tubo de PVC;sergio.assi@asperbras.com;www.asperbrasrotomoldagem.com.br;Francisco Carlos Jorge Colnag;Diretor;2015-05-21 00:00:00;2023-08-10 00:00:00;Via de Penetracao I, 590-B, CIA, Simoes Filho, BA;Via de Penetração - Polo Hab. Litoral Norte, Lauro de Freitas - BA, 42700-000, Brazil;-12.8796444;-38.3351696
10.878.318/0001-23;Vera Cruz Tecnologia, Industria, Com e Servicos de Usinagem Ltda;Vera Cruz;Via Periferica I, Penetracao C;S/N;Galpao B Fundos;CIA;Simoes Filho;BA;43700000;(71) 2109-3550;(71) 2109-3557;(71) 2109-3563;23;720.001,00 a 1.500.000,00;C2539001;Serviços de usinagem, tornearia e solda;Servico de usinagem, caldeiraria e manutencao, Fabricacao de peca sob desenho e amostra;comercial@veracruzusinagem.com.br;www.veracruzusinagem.com.br;Paulo Sergio Ramos Tavares;Proprietario;2013-10-22 00:00:00;2023-11-03 00:00:00;Via Periferica I, Penetracao C, S/N, Galpao B Fundos, CIA, Simoes Filho, BA;Rod. Eng. Vasco Filho, 1994 - Lot. Recanto dos Eucaliptos, Simões Filho - BA, 43700-000, Brazil;-12.7836011;-38.412831
97.519.408/0001-06;WPC Nordeste Industria e Comercio de Artefatos Plasticos Ltda;WPC Nordeste;Acesso Via Centro;4370;Anexo CIA;CIA;Simoes Filho;BA;43700971;(71) 99192-8547 ;(71) 99281-8692;;13;3.000.001,00 a 6.000.000,00;C2229303;Fabricação de artefatos de material plástico para uso na construção, exceto tubos e acessórios;Perfil, Deck de piscina, Porta, Janela;carloshenrique@wpcnordeste.com.br;;Carlos Eduardo Barbosa Silva;Socio;2013-10-23 00:00:00;2023-03-06 00:00:00;Acesso Via Centro, 4370, Anexo CIA, CIA, Simoes Filho, BA;Via Centro, 4370, Simões Filho - BA, 43700-000, Brazil;-12.8196215;-38.4158574
11.036.931/0001-66;Plataforma Ambiental Ltda;;Via Periferica Waldir Beira;S/N;;CIA;Simoes Filho;BA;43700000;(71) 4117-1738;(71) 98219-1020;(71) 99622-2207;19;1.500.001,00 a 3.000.000,00;E3822000;Tratamento e disposição de resíduos perigosos;Tratamento de efluentes liquido industriais;contato@eccomar.com.br;;Andre Micucci Cohim Ribeiro;Socio Administrador;2013-10-25 00:00:00;2022-10-05 00:00:00;Via Periferica Waldir Beira, S/N, CIA, Simoes Filho, BA;Rod. Eng. Vasco Filho, 1994 - Lot. Recanto dos Eucaliptos, Simões Filho - BA, 43700-000, Brazil;-12.7836011;-38.412831
61.480.380/0007-99;Rohr S/A Estruturas Tubulares;ROHR;Via Periferica I;6842;;CIA;Simoes Filho;BA;43700000;(71) 3295-4100;;;23;12.000.001,00 a 25.000.000,00;F4299599;Outras obras de engenharia civil não especificadas anteriormente;Locacao de equipamentos e mao de obra especializada para montagem de estruturas tubulares;mauricio@rohr.com.br;www.rohr.com.br;Mauricio Carvalho;Gerente de Filial;2012-12-05 00:00:00;2022-02-03 00:00:00;Via Periferica I, 6842, CIA, Simoes Filho, BA;Via periferica I, 6842, Simões Filho - BA, 43700-000, Brazil;-12.8396052;-38.415459
09.075.402/0001-20;Rei Moveis Planejados Industria e Comercio Ltda;Rei Moveis;Via Centro Sul;394;;CIA;Simoes Filho;BA;43700000;(71) 3594-8745;;;31;6.000.001,00 a 12.000.000,00;C3101200;Fabricação de móveis com predominância de madeira;Movel residencial;rei-moveis@hotmail.com;www.reimoveisbahia.com.br;Sergio Luis Scopel;Proprietario;2010-05-26 00:00:00;2023-02-06 00:00:00;Via Centro Sul, 394, CIA, Simoes Filho, BA;Via Centro, 394 - Conj. Hab. Cia II, Simões Filho - BA, 43700-000, Brazil;-12.8192886;-38.4106828
06.175.138/0001-08;Cabra Forte Alimentos Ltda;Cabra Forte;Rod BR-324 Km 15,5;S/N;Fundos ;CIA;Simoes Filho;BA;43700000;(71) 99700-9666;(71) 99991-9666;;121;25.000.001,00 a 50.000.000,00;C1011201;Frigorífico - abate de bovinos;Abate de equideos, bovinos e caprinos;reginaldo@frimasa.com.br;www.cabraforte.com;Reginaldo Pinheiro da Silva Filho;Socio Diretor;2010-12-22 00:00:00;2023-05-16 00:00:00;Rod BR-324 Km 15,5, S/N, Fundos , CIA, Simoes Filho, BA;Rod. Eng. Vasco Filho, 1994 - Lot. Recanto dos Eucaliptos, Simões Filho - BA, 43700-000, Brazil;-12.7836011;-38.412831
14.998.371/0032-15;J. Macedo S/A - Filial Simoes Filho;;Via Centro;374;BR-324 Km 20;CIA;Simoes Filho;BA;43780000;(85) 4006-8150;(85) 4006-6930;;650;100.000.001,00 a 250.000.000,00;C1094500;Fabricação de massas alimentícias;Massa, Biscoito, Salgadinho;mayrasilva@jmacedo.com.br;www.jmacedo.com.br;Irineu Jose Pedrollo;Presidente;2000-09-14 00:00:00;2023-08-17 00:00:00;Via Centro, 374, BR-324 Km 20, CIA, Simoes Filho, BA;Rod. Eng. Vasco Filho, 374 - Lot. Recanto dos Eucaliptos, Simões Filho - BA, 43700-000, Brazil;-12.786993;-38.4081927
01.555.700/0001-05;M4 Empreendimentos & Turismo Ltda;M4 Estruturas Tubulares;Lote 01 A Quadra 10 Dica;S/N;;CIA;Simoes Filho;BA;43700000;(71) 2109-8144;(71) 2109-8106;;5;120.001,00 a 720.000,00;F4399102;Montagem e desmontagem de andaimes e outras estruturas temporárias;Montagem de estrutura para eventos, Cerca modulada;diretoria@m4net.com.br;www.m4net.com.br;Paulo Medrado;Diretor;2001-06-20 00:00:00;2023-07-14 00:00:00;Lote 01 A Quadra 10 Dica, S/N, CIA, Simoes Filho, BA;Rod. Eng. Vasco Filho, 1994 - Lot. Recanto dos Eucaliptos, Simões Filho - BA, 43700-000, Brazil;-12.7836011;-38.412831
00.331.788/0021-62;Air Liquide Brasil Ltda;Air Liquide;Via de Penetracao I;890;;CIA;Simoes Filho;BA;43700000;(71) 3296-8250;(71) 3191-1991;(71) 99105-8932;34;25.000.001,00 a 50.000.000,00;C2014200;Fabricação de gases industriais;Oxigenio industrial, Oxigenio medicinal, Gas especial;cristiana.silva@airliquide.com;www.airliquide.com.br;Fernando Bononi Junior;Diretor Administrativo Financeiro;2000-09-15 00:00:00;2023-02-24 00:00:00;Via de Penetracao I, 890, CIA, Simoes Filho, BA;Simoes Filho, Simões Filho - State of Bahia, Brazil;-12.7862756;-38.402154
16.400.178/0001-60;Santeno Irrigacoes do Nordeste Ltda;Santeno;Dica Quadra 06 Lote 10;S/N;;CIA;Simoes Filho;BA;43700000;(71) 3082-1313 ;(71) 3082-1300;(71) 3082-1301;80;100.000.001,00 a 250.000.000,00;C2229399;Fabricação de artefatos de material plástico para outros usos não especificados anteriormente;Mangueira para irrigacao, Mulching, Composto de resina termoplastica, Kit jardim (mangueiras e conexoes), Kit irrigacao por microaspersao (mangueiras microperfuradas com filme agricola e conexoes), Geomembrana, Silo bolsa;marlon@santeno.com.br;www.santeno.com.br;Carlos Ferreira;Gerente Industrial;2000-09-19 00:00:00;2022-10-07 00:00:00;Dica Quadra 06 Lote 10, S/N, CIA, Simoes Filho, BA;Simoes Filho, Simões Filho - State of Bahia, Brazil;-12.7862756;-38.402154
59.320.820/0013-47;Greif Embalagens Industriais do Brasil Ltda;Greif Embalagens;Via Periferica I;2981;;CIA;Simoes Filho;BA;43700000;(71) 3594-8077;(71) 3507-0512;;37;25.000.001,00 a 50.000.000,00;C2591800;Fabricação de embalagens metálicas;Tambor de aco;tatiana.leal@greif.com;www.greif.com.br;Amanda Monique Abreu de Lima Santana;Coordenador da Planta;2000-08-11 00:00:00;2023-02-01 00:00:00;Via Periferica I, 2981, CIA, Simoes Filho, BA;Via Periferica I, 2981 - A Definir, Simões Filho - BA, 43700-000, Brazil;-12.8237097;-38.4318736
15.147.507/0001-40;Favab S/A;Favab;Via Periferica I;3431;;CIA;Simoes Filho;BA;43700000;(71) 3211-8000 ;(71) 3211-8030;(71) 3211-8008;26;50.000.001,00 a 100.000.000,00;C1921700;Fabricação de produtos do refino de petróleo;Oleo mineral, Vaselina;sac@favab.com.br;;Eduardo Cintra Santos;Diretor;2000-08-11 00:00:00;2023-07-13 00:00:00;Via Periferica I, 3431, CIA, Simoes Filho, BA;Via Periferica I, 3431 - A Definir, Simões Filho - BA, 43700-000, Brazil;-12.821291;-38.426498
13.455.068/0001-07;Durit Brasil Ltda;Durit Brasil;Via de Penetracao III;519;;CIA;Simoes Filho;BA;43700000;(71) 2106-9500;(71) 2106-9530;;160;12.000.001,00 a 25.000.000,00;C2599399;Fabricação de outros produtos de metal não especificados anteriormente;Estampagem e deformacao a frio e prensagem de pos: puncao/matriz, Pastilha, Botao, Rolo, Fieira, roldana, guia, Componentes anti desgaste: anel, embolo, sede, selo, obturador. Mandris e fieiras para producao de tubos e barras em ligas ferrosas e nao ferro;rh@durit.com.br;www.durit.com.br;Joao Aderito da Silva Belo Valente;Diretor Geral;2000-08-14 00:00:00;2022-08-19 00:00:00;Via de Penetracao III, 519, CIA, Simoes Filho, BA;Via de Penetração III, 519 - Centro Industrial de Aratu, Simões Filho - BA, 43700-000, Brazil;-12.826384;-38.4111967
62.143.847/0002-63;Dacarto Industria e Comercio de Plasticos Ltda;;Via Centro;3244;;CIA;Simoes Filho;BA;43700000;(71) 3594-8522;(71) 3594-9664;;57;50.000.001,00 a 100.000.000,00;C2229302;Fabricação de artefatos de material plástico para usos industriais;PVC Composto nao plastificado, PVC Composto plastificado;fiscal.filial@dacarto.com.br;www.dacarto.com.br;Altamir Antao Fernandes;Diretor Administrativo Financeiro;2000-08-29 00:00:00;2024-01-02 00:00:00;Via Centro, 3244, CIA, Simoes Filho, BA;Via Centro, 3244, Simões Filho - BA, 43700-000, Brazil;-12.8196215;-38.4158574
15.102.262/0001-34;Postes Nordeste S/A;Postes Nordeste;Via Centro;3600;;CIA;Simoes Filho;BA;43700000;(71) 3413-8422;;;64;25.000.001,00 a 50.000.000,00;C2330301;Fabricação de estruturas pré-moldadas de concreto armado, em série e sob encomenda;Poste, Cruzeta, Anel, Viga, Coluna, Suporte Jabaquara, Placa de Estai;adm@postesnordeste.com.br;www.postesnordeste.com.br;Monica Mendes de Carvalho Gantois;Socia Diretora;2000-08-30 00:00:00;2023-07-13 00:00:00;Via Centro, 3600, CIA, Simoes Filho, BA;Via Centro, 3600, Simões Filho - BA, 43700-000, Brazil;-12.8196215;-38.4158574
00.726.741/0001-54;Sol Nordeste Ltda;Sol Nordeste;Dica Quadra 09 Lote 02 Zona C;S/N;;CIA;Simoes Filho;BA;43700000;(71) 3415-1019;;;41;6.000.001,00 a 12.000.000,00;C2222600;Fabricação de embalagens de material plástico;Bobina picotada para horti-fruti e outros fins, Bobina picotada, Composto de resina plastica, Saco, Sacola, Bobina plastica;solnordeste@solnordeste.com.br;;Jose Roberto Amaral Salles;Socio Gerente;2000-08-31 00:00:00;2022-08-08 00:00:00;Dica Quadra 09 Lote 02 Zona C, S/N, CIA, Simoes Filho, BA;Simoes Filho, Simões Filho - State of Bahia, Brazil;-12.7862756;-38.402154
15.187.776/0001-30;Petrol Industrial S/A;Petrol;Via Periferica I;5071;;CIA;Simoes Filho;BA;43700000;(71) 3594-8166;;;12;6.000.001,00 a 12.000.000,00;C2851800;Fabricação de máquinas e equipamentos para a prospecção e extração de petróleo, peças e acessórios;Equipamentos e acessorios para instalacoes e pocos de petroleo;petrol@terra.com.br;www.petrolindustrial.com.br;Celio Jose de Souza;Presidente;2000-08-31 00:00:00;2022-10-11 00:00:00;Via Periferica I, 5071, CIA, Simoes Filho, BA;Via Periferica I, 5071 - A Definir, Simões Filho - BA, 43700-000, Brazil;-12.8249249;-38.4140745
01.029.001/0001-21;Poly FFS Plasticos Ltda;Poly;Via das Torres;S/N;Lote 2-A;CIA;Simoes Filho;BA;43700000;(71) 3594-9542;(71) 3377-9037;;4;0,00 a 120.000,00;C2229302;Fabricação de artefatos de material plástico para usos industriais;Filme FFS;gerencia@polyffs.com.br;www.polyffs.com.br;Teng Li Cheung;Gerente Geral;2000-09-04 00:00:00;2023-09-21 00:00:00;Via das Torres, S/N, Lote 2-A, CIA, Simoes Filho, BA;Via das Torres, Simões Filho - BA, 43700-000, Brazil;-12.8306796;-38.4241588
00.106.941/0001-04;Gel Divisao Eletrica Eireli;Gel Eletrica;Rod BR-324 Km 18, Via de Penetracao 3;S/N;Lts 809/810;CIA;Simoes Filho;BA;43700000;(71) 3594-3900;;;9;720.001,00 a 1.500.000,00;C2732500;Fabricação de material elétrico para instalações em circuito de consumo;Artigo regional em metal, Penca de prata, Berimbau, Trofeu, Pecas para equipamentos eletricos;diretoria@geleletrica.com.br;www.geleletrica.com.br;Joao Massa Viana;Socio Gerente;2000-09-06 00:00:00;2022-08-10 00:00:00;Rod BR-324 Km 18, Via de Penetracao 3, S/N, Lts 809/810, CIA, Simoes Filho, BA;Via de Penetração III, Simões Filho - BA, 43700-000, Brazil;-12.8262772;-38.4106345
15.102.924/0001-76;Organizacao Leao do Norte Ltda;Leao do Norte;Rod BR-324 Km 16;S/N;Fabrica;CIA;Simoes Filho;BA;43700000;(71) 3503-8666;;;45;25.000.001,00 a 50.000.000,00;C1112700;Fabricação de vinho;Vinho tinto composto com jurubeba;leaodonorte@leaodonorte.com.br;www.leaodonorte.com.br;Eduardo Queiroz da Costa Lima;Socio Administrador;2000-09-06 00:00:00;2023-11-21 00:00:00;Rod BR-324 Km 16, S/N, Fabrica, CIA, Simoes Filho, BA;Simoes Filho, Simões Filho - State of Bahia, Brazil;-12.7862756;-38.402154
03.255.228/0001-10;Cascadura Industrial Bahia Ltda;Cascadura;Via de Penetracao B Lote 6/14;S/N;Dist 2,4,10 Cx Postal 3013;CIA;Simoes Filho;BA;43700000;(71) 3594-7155;(71) 3594-9484;;8;120.001,00 a 720.000,00;C2539001;Serviços de usinagem, tornearia e solda;Usinagem, Servico industrial de cromagem, aspersao termica e solda;ssa@cascadura.com.br;www.cascadura.com.br;Isaac Possato;Diretor;2000-10-17 00:00:00;2023-06-14 00:00:00;Via de Penetracao B Lote 6/14, S/N, Dist 2,4,10 Cx Postal 3013, CIA, Simoes Filho, BA;Rod. Eng. Vasco Filho, 1994 - Lot. Recanto dos Eucaliptos, Simões Filho - BA, 43700-000, Brazil;-12.7836011;-38.412831
43.461.789/0004-33;Quimica Amparo Ltda;Ype;Via Periferica Waldir Beira;S/N;;CIA;Simoes Filho;BA;43700000;(71) 2102-7000;;;1051;25.000.001,00 a 50.000.000,00;C2061400;Fabricação de sabões e detergentes sintéticos;Sabao em pasta, Detergente, Amaciante, Desinfetante, Sabonete, Agua sanitaria, Sabao em barra, Esponja de aco multiuso;elton.santos@ype.ind.br;www.ype.ind.br;Waldir Beira Junior;Diretor Adjunto;2003-05-06 00:00:00;2023-04-10 00:00:00;Via Periferica Waldir Beira, S/N, CIA, Simoes Filho, BA;Rod. Eng. Vasco Filho, 1994 - Lot. Recanto dos Eucaliptos, Simões Filho - BA, 43700-000, Brazil;-12.7836011;-38.412831
05.124.161/0001-00;Web Nordeste Ltda;Web Nordeste;Via Centro Sul;903;;CIA;Simoes Filho;BA;43700000;(71) 3311-4455;(71) 3311-4470;;146;25.000.001,00 a 50.000.000,00;C2813500;Fabricação de válvulas, registros e dispositivos semelhantes, peças e acessórios;Valvula esfera, Valvula gaveta, Partes de valvulas, Valvula redutora de pressao, Cabeca de poco;webnordeste@webnordeste.com.br;www.webnordeste.com.br;Jorge Henrique Geringer;Socio Diretor;2003-07-01 00:00:00;2023-03-23 00:00:00;Via Centro Sul, 903, CIA, Simoes Filho, BA;Via Centro, Simões Filho - BA, 43700-000, Brazil;-12.8199377;-38.4146153
04.383.583/0001-38;Forja Bahia Ltda;Forja Bahia;Via Ipitanga;329;;CIA;Simoes Filho;BA;43700000;(71) 3082-9559;(71) 3082-9504;(71) 3082-9508;70;25.000.001,00 a 50.000.000,00;C2531401;Produção de forjados de aço;Pecas de aco forjado;fb@forjabahia.com.br;www.forjabahia.com.br;Wagner Rogerio Marques da Silva;Proprietario;2004-07-08 00:00:00;2023-08-21 00:00:00;Via Ipitanga, 329, CIA, Simoes Filho, BA;Via Ipitanga, 329 - CIA, Simões Filho - BA, 43700-000, Brazil;-12.8383927;-38.43670160000001
05.051.144/0001-90;Pre-Moldados Industriais de Concreto Ltda;Pre-Moldados Industriais de Concreto Ltda;Rua das Flores;S/N;;CIA;Simoes Filho;BA;43700000;(71) 3413-8422;(71) 3413-8403;;65;120.001,00 a 720.000,00;C2330399;Fabricação de outros artefatos e produtos de concreto, cimento, fibrocimento, gesso e materiais semelhantes;Poste para distribuicao, Cruzeta, Poste circular, Galpao, Estaca;controle@postesnordeste.com.br;;Mariela Mendes de Carvalho Franco;Socia Administradora;2005-02-14 00:00:00;2022-11-18 00:00:00;Rua das Flores, S/N, CIA, Simoes Filho, BA;Rod. Eng. Vasco Filho, 1994 - Lot. Recanto dos Eucaliptos, Simões Filho - BA, 43700-000, Brazil;-12.7836011;-38.412831
37.655.461/0003-74;Delta Tintas Ltda;Delta Tintas;Av Anel 03 Quadra 06 Lote 03 Dica;S/N;;CIA;Simoes Filho;BA;43700000;(71) 3394-1313;(71) 3394-1715;;22;1.500.001,00 a 3.000.000,00;C2071100;Fabricação de tintas, vernizes, esmaltes e lacas;Tinta latex;deltatintas@tintasdelta.com.br;;Marcilio Trigo;Proprietario;2007-05-15 00:00:00;2023-09-28 00:00:00;Av Anel 03 Quadra 06 Lote 03 Dica, S/N, CIA, Simoes Filho, BA;Rod. Eng. Vasco Filho, 1994 - Lot. Recanto dos Eucaliptos, Simões Filho - BA, 43700-000, Brazil;-12.7836011;-38.412831
08.377.625/0001-89;KYC Processadora de Carnes Ltda;KYC Carnes;Rod BR-324 Km 15,5;S/N;;CIA;Simoes Filho;BA;43700000;(71) 3301-0707;;;42;0,00 a 120.000,00;C1011201;Frigorífico - abate de bovinos;Processamento de carne resfriada;kyc.meat@hotmail.com;;Evaldo Gomes Martins;Socio Proprietario;2007-08-13 00:00:00;2019-05-31 00:00:00;Rod BR-324 Km 15,5, S/N, CIA, Simoes Filho, BA;Rod. Eng. Vasco Filho, Simões Filho - BA, Brazil;-12.7833653;-38.4133446
07.292.680/0001-03;Inoquimica Industria e Comercio Ltda;Poliaminas;Via de Penetracao IV;447;Antigo 329, Zona de Ind Leves e Medias;CIA;Simoes Filho;BA;43700000;(71) 3173-8000;(71) 3173-8016;(71) 98162-6817;45;50.000.001,00 a 100.000.000,00;C2029100;Fabricação de produtos químicos orgânicos não especificados anteriormente;Oleo Petroquil (oleo plastificante), Oleo de soja epoxidado (plastificante), Protack RA C70 (resina poliester-glicol), Aditivo para borrachas e plasticos, Resinas de poliester;qualidade@inoquimica.com.br;www.inoquimica.com.br;Thiago Barbosa Lima;Socio Administrador;2007-08-17 00:00:00;2022-10-07 00:00:00;Via de Penetracao IV, 447, Antigo 329, Zona de Ind Leves e Medias, CIA, Simoes Filho, BA;Rod. Eng. Vasco Filho, 1994 - Lot. Recanto dos Eucaliptos, Simões Filho - BA, 43700-000, Brazil;-12.7836011;-38.412831
04.692.961/0001-65;Epebras Fabricacao de Maquinas e Equipamentos Petroliferos Ltda;Epebras;Via Periferica II;2185;Galpao II;CIA;Simoes Filho;BA;43700000;(71) 3594-5721;(71) 3594-5738;(71) 3321-1518;17;1.500.001,00 a 3.000.000,00;C2851800;Fabricação de máquinas e equipamentos para a prospecção e extração de petróleo, peças e acessórios;Sonda de petroleo;adm@epebras.com;www.epebras.com;Carlos Romeu Silva Filho;Superintendente;2008-03-04 00:00:00;2023-07-18 00:00:00;Via Periferica II, 2185, Galpao II, CIA, Simoes Filho, BA;Via Periférica 2, 2185, Simões Filho - BA, 43700-000, Brazil;-12.8104566;-38.44464809999999
08.803.423/0001-51;Kop do Brasil Industrias Farmaceuticas Ltda;;Via de Penetracao II;359;;CIA;Simoes Filho;BA;43700000;(71) 3301-8850 ;(71) 2626-8850;(71) 99982-7608;12;720.001,00 a 1.500.000,00;C2123800;Fabricação de preparações farmacêuticas;Agua oxigenada 10v, Alcool iodado, Agua destilada, Alcool 70%;diretoria@kopdobrasil.com.br;www.kopdobrasil.com.br;Jose Helio Sanches;Socio;2008-06-16 00:00:00;2022-12-06 00:00:00;Via de Penetracao II, 359, CIA, Simoes Filho, BA;Via de Penetração - Polo Hab. Litoral Norte, Lauro de Freitas - BA, 42700-000, Brazil;-12.8796444;-38.3351696
63.278.311/0001-37;Concretiza Fabricacao de Artefatos de Cimento Ltda;Concretiza;Via Urbana;1560;;CIA;Simoes Filho;BA;43700000;(71) 3378-9900;(71) 3594-8788;;28;1.500.001,00 a 3.000.000,00;C2330302;Fabricação de artefatos de cimento para uso na construção;Piso intertravado;concretiza@concretiza.com.br;www.concretiza.com.br;Jose Carlos Telles Soares;Diretor;2009-04-01 00:00:00;2023-08-07 00:00:00;Via Urbana, 1560, CIA, Simoes Filho, BA;Vila CIA Sul, 1560, Simões Filho - BA, 43700-000, Brazil;-12.8254995;-38.4053175
08.704.551/0001-48;Sulamericana Quimica Ltda;Sulamericana Quimica;Via de Penetracao II;S/N;Lote 5;CIA;Simoes Filho;BA;43700000;(71) 3594-5540;(71) 3594-7153;;16;12.000.001,00 a 25.000.000,00;C2019399;Fabricação de outros produtos químicos inorgânicos não especificados anteriormente;Cloreto ferrico, Cloreto de magnesio, Sulfato de ferro;adm@sulamericanaquimica.com.br;;Jose Helio Sanches;Diretor Presidente;2009-04-03 00:00:00;2022-11-11 00:00:00;Via de Penetracao II, S/N, Lote 5, CIA, Simoes Filho, BA;Simoes Filho, Simões Filho - State of Bahia, Brazil;-12.7862756;-38.402154
05.783.974/0001-02;Flamagel Industria e Comercio Ltda;Flamagel;Via de Penetracao III;S/N;Qd 1 Lt 3-A, Galpao I;CIA Dica;Simoes Filho;BA;43700000;(71) 3503-1616;(71) 3503-1604;;9;6.000.001,00 a 12.000.000,00;C1931400;Fabricação de álcool;Alcool etilico, Alcool liquido 46º, Alcool absoluto 99,5º, Alcool gel, Acendedor de lamparina-Luminol, Gel acendedor de churrasqueira-Firestart;adm@flamagel.com.br;www.flamagel.com.br;Fernando Ney Lima Biron;Socio Proprietario;2007-04-11 00:00:00;2023-06-20 00:00:00;Via de Penetracao III, S/N, Qd 1 Lt 3-A, Galpao I, CIA Dica, Simoes Filho, BA;Via de Penetração III, Simões Filho - BA, 43700-000, Brazil;-12.8262772;-38.4106345
05.244.627/0001-01;Usiveda Comercio e Servicos de Motores Eletricos Eireli;Usiveda;Av Universitaria;842;;CIA I;Simoes Filho;BA;43700000;(71) 3296-4802;;;8;120.001,00 a 720.000,00;C3311200;Manutenção e reparação de tanques, reservatórios metálicos e caldeiras, exceto para veículos;Caldeiraria, Usinagem, Soldagem, Reparacao de tanques e reservatorios;usiveda@gmail.com;www.usiveda.com.br;Jailton Luiz Alves Dias;Diretor;2003-01-14 00:00:00;2022-10-27 00:00:00;Av Universitaria, 842, CIA I, Simoes Filho, BA;Via Universitária, 842 - Nucleo Hab. Rubens Costa Cia I, Simões Filho - BA, 43700-000, Brazil;-12.8030762;-38.3870225
05.116.907/0001-34;Itazul Industria e Comercio de Produtos de Limpeza Eireli;Ita-Azul;Lot Distrito de Calcados-DICA Qd 11 Lt 04;113;;CIA I;Simoes Filho;BA;43700000;(71) 3233-9101;(71) 3244-7677;(71) 99609-4228;100;12.000.001,00 a 25.000.000,00;C2062200;Fabricação de produtos de limpeza e polimento;Detergente, Agua sanitaria, Alvejante, Desinfetante;financeiro@itazul.com.br;www.itazul.com.br;Pedro Gordilho Damaso;Titular;2008-03-07 00:00:00;2023-01-31 00:00:00;Lot Distrito de Calcados-DICA Qd 11 Lt 04, 113, CIA I, Simoes Filho, BA;Simoes Filho, Simões Filho - State of Bahia, Brazil;-12.7862756;-38.402154
03.879.023/0002-97;Reciclal Industria e Comercio Ltda;Reciclal;Av Sest/Senat;1180;;CIA I;Simoes Filho;BA;43700000;(71) 3381-7898;(71) 3382-7150;(71) 3244-2269;12;0,00 a 120.000,00;E3839499;Recuperação de materiais não especificados anteriormente;Saco para lixo (reciclado), Papel separado do lixo;;www.reciclalsa.com.br;Alfredo Macedo Mangueira;Diretor Presidente;2009-11-03 00:00:00;2018-11-29 00:00:00;Av Sest/Senat, 1180, CIA I, Simoes Filho, BA;Rodovia BR 324, Km 606, Via Adutora II - Centro Industrial de Aratu - Cia Sul 1 - Nucleo Hab. Rubens Costa Cia I, Simões Filho - BA, 43700-000, Brazil;-12.8136339;-38.4034461
20.784.486/0001-03;Logica Comercio e Servicos Ltda;Logica Comercio e Servicos Ltda;Travessa Monteiro Lobato;66;;CIA I;Simoes Filho;BA;43700000;(71) 3045-1529;;;5;120.001,00 a 720.000,00;C3314702;Manutenção e reparação de equipamentos hidráulicos e pneumáticos, exceto válvulas;Manutencao e reparacao de equipamentos hidraulicos e pneumaticos;logica@logicaautomacao.com;;Sergio Roberto Vivas Fontoura;Socio;2017-11-01 00:00:00;2019-09-12 00:00:00;Travessa Monteiro Lobato, 66, CIA I, Simoes Filho, BA;Tv. Monteiro Lobato, 66 - Vila Rui Barbosa, Salvador - BA, 40430-155, Brazil;-12.9311275;-38.5006174
21.845.503/0001-38;Cal Service Manutencao e Calibracao Industrial Ltda;CAL Service;Av Rivaldo Gomes Guimaraes;358;Quadra 3;CIA I;Simoes Filho;BA;43700000;(71) 3165-5926;(71) 99647-4147;(71) 98852-5926;6;120.001,00 a 720.000,00;C3314710;Manutenção e reparação de máquinas e equipamentos para uso geral não especificados anteriormente;Manutencao em balancas, Calibracao de instrumentos , Manutencao preventiva e corretiva;contato@calservice.ind.br;www.calservice.ind.br;Sueudo de Lima Souza;Socio;2018-07-11 00:00:00;2023-12-13 00:00:00;Av Rivaldo Gomes Guimaraes, 358, Quadra 3, CIA I, Simoes Filho, BA;Av. Rivaldo Gomes Guimarães, 358 - Quadra 3 - Nucleo Hab. Rubens Costa Cia I, Simões Filho - BA, 43700-000, Brazil;-12.8105506;-38.3953874
28.516.267/0001-55;Industria de Reciclagem Plastica da Bahia Ltda;Industria de Reciclagem Plastica da Bahia;Via Universitaria;842;;CIA I;Simoes Filho;BA;43700000;(71) 99614-5288;(71) 3396-1215;;0;720.001,00 a 1.500.000,00;E3832700;Recuperação de materiais plásticos;Reciclagem de plastico (PE, PP);reciclagemba@gmail.com;;Jurandir Bastos Cardoso;Diretor;2021-05-19 00:00:00;2023-02-23 00:00:00;Via Universitaria, 842, CIA I, Simoes Filho, BA;Via Universitária, 842 - Nucleo Hab. Rubens Costa Cia I, Simões Filho - BA, 43700-000, Brazil;-12.8030762;-38.3870225
22.652.623/0001-81;W Service Comercio, Locacao e Manut em Equips Hospitalares Eireli;W Service Hospitalar;Av Eng Elmo Serejo de Farias;2449;Sl 102;CIA I;Simoes Filho;BA;43700000;(71) 3396-0035;(71) 99717-1210;;8;720.001,00 a 1.500.000,00;C3312103;Manutenção e reparação de aparelhos eletromédicos e eletroterapêuticos e equipamentos de irradiação;Manutencao e reparacao de aparelhos hospitalares, Manutencao de redes (gas oxigenio, ar condicionado central, ar comprimido, vacuo), Manutencao de autoclaves e de lavanderia industrial;comercial@wservicehospitalar.com.br;www.wservicehospitalar.com.br;David Marinho da Silva;Socio;2018-09-10 00:00:00;2023-10-17 00:00:00;Av Eng Elmo Serejo de Farias, 2449, Sl 102, CIA I, Simoes Filho, BA;Av. Elmo Serejo de Farias, 2449 - 102 - Nucleo Hab. Rubens Costa Cia I, Simões Filho - BA, 43700-000, Brazil;-12.8103858;-38.3920153
32.677.536/0001-32;Clonor Industria Quimica Ltda;Clonor;Rua Ouro Negro;31;Qd 01 Andar 1;CIA I;Simoes Filho;BA;43700000;(71) 98668-0705;;;5;1.500.001,00 a 3.000.000,00;C2099199;Fabricação de outros produtos químicos não especificados anteriormente;Policloreto de aluminio;clonor@clonor.com.br;;Joao Augusto Tararan;Socio Administrador;2007-03-28 00:00:00;2023-03-21 00:00:00;Rua Ouro Negro, 31, Qd 01 Andar 1, CIA I, Simoes Filho, BA;R. Ouro Negro, 31 - Qd 01 Andar 1, Simões Filho - BA, 43700-000, Brazil;-12.8166382;-38.3916462
42.860.340/0001-32;Mao Tecnica Servico de Manutencao Industrial Eireli;Mao Tecnica;Av Paranagua;159;;CIA I;Simoes Filho;BA;43700000;(71) 3599-7184;(71) 99138-9297;;2;0,00 a 120.000,00;C3314716;Manutenção e reparação de tratores, exceto agrícolas;Manutencao e reparacao de empilhadeira;maotecnica01@gmail.com;;Keyle Aparecida Boaventura Gomes;Proprietaria;2022-07-12 00:00:00;2023-12-22 00:00:00;Av Paranagua, 159, CIA I, Simoes Filho, BA;Simoes Filho, Simões Filho - State of Bahia, Brazil;-12.7862756;-38.402154
19.941.062/0001-26;Bahmec Manutencao Industrial Ltda;Bahmec Manutencao Industrial;Rua da Independencia;263;Quadra 02;CIA I;Simoes Filho;BA;43700000;(71) 3396-2988;(71) 3303-9998;;5;120.001,00 a 720.000,00;C3311200;Manutenção e reparação de tanques, reservatórios metálicos e caldeiras, exceto para veículos;Manutencao de tanques, reservatorios metalicos e caldeiras, Manutencao e reparacao de maquina industrial;jnevesmanutencao@hotmail.com;;Joao Neves dos Santos;Socio Administrador;2023-03-20 00:00:00;;Rua da Independencia, 263, Quadra 02, CIA I, Simoes Filho, BA;Simoes Filho, Simões Filho - State of Bahia, Brazil;-12.7862756;-38.402154
45.510.812/0001-15;Ideal Tech Metalurgica Ltda;Ideal Tech;Av Rivaldo Gomes Guimaraes;375;Qd 4;CIA I;Simoes Filho;BA;43700000;(71) 98505-2024;(71) 3014-8600;;2;0,00 a 120.000,00;C2539001;Serviços de usinagem, tornearia e solda;Servico de solda, Tornearia, Usinagem;;;Jose Lima de Almeida Neto;Socio Administrador;2022-09-29 00:00:00;;Av Rivaldo Gomes Guimaraes, 375, Qd 4, CIA I, Simoes Filho, BA;Av. Rivaldo Gomes Guimarães, 375 - Qd 4 - Nucleo Hab. Rubens Costa Cia I, Simões Filho - BA, 43700-000, Brazil;-12.8109973;-38.3953734
41.162.589/0001-01;Mundial Color Perfis em Aluminio Ltda;Mundial Color Perfis;Rua da Linha de Transmissao;954;;CIA I;Simoes Filho;BA;43700000;(71) 3599-5023;(71) 99227-8238;;40;12.000.001,00 a 25.000.000,00;C2512800;Fabricação de esquadrias de metal;Perfil de aluminio (diversos tipos e formatos);fiscal@grupomundialaluminio.com.br;;Rejane de Oliveira Souza;Socia Administrativa;2023-09-27 00:00:00;;Rua da Linha de Transmissao, 954, CIA I, Simoes Filho, BA;MUNDIAL COLOR PERFIS EM ALUMINIO - R. da Linha de Transmissão, 954 - Nucleo Hab. Rubens Costa Cia I, Simões Filho - BA, 43700-000, Brazil;-12.8130228;-38.3972728
41.624.229/0001-84;Alex Fernandes da Silva - MEI;Astral Crachas;Av Elmo Serejo Farias;1525;1 Andar;CIA II;Simoes Filho;BA;43700000;(71) 3298-0829;(71) 98887-8079;;2;0,00 a 120.000,00;C1813001;Impressão de material para uso publicitário;Cracha, Protetor de cracha, Cordao personalizado para cracha, Cartao, Carteira;astralcrachas@gmail.com;www.astralcrachas.com.br;Alex Fernandes da Silva;Proprietario;2021-10-21 00:00:00;2023-07-05 00:00:00;Av Elmo Serejo Farias, 1525, 1 Andar, CIA II, Simoes Filho, BA;Av. Elmo Serejo de Farias, 1525 - 1 Andar - Conj. Hab. Cia II, Simões Filho - BA, 43700-000, Brazil;-12.8017547;-38.3964565
05.746.147/0001-49;Sousa e Reale Ltda;Marmoraria Brasil;Av Eng Elmo Serejo de Farias;1357;Terreo;CIA II;Simoes Filho;BA;43700000;(71) 3396-2442;;;15;120.001,00 a 720.000,00;C2391503;Aparelhamento de placas e execução de trabalhos em mármore, granito, ardósia e outras pedras;Peitoril, Pia, Bancada, Soleira, Mausoleu, Mesa, Escada, Balcao;marmoraria_brasil@hotmail.com;;Adneia Reale dos Santos;Socio Administrador;2008-05-12 00:00:00;2022-08-16 00:00:00;Av Eng Elmo Serejo de Farias, 1357, Terreo, CIA II, Simoes Filho, BA;Av. Elmo Serejo de Farias, 1357 - Conj. Hab. Cia II, Simões Filho - BA, 43700-000, Brazil;-12.8004275;-38.3960426
05.991.147/0001-04;Maria da Pena Conceicao da Mota Ltda;Usinart Metalurgica Ltda;Rod Universitaria;S/N;Galpao;CIA II;Simoes Filho;BA;43700000;(71) 99991-2559;(71) 99399-9851;(71) 99167-2553;12;1.500.001,00 a 3.000.000,00;C2539001;Serviços de usinagem, tornearia e solda;Usinagem, Eixo flutuante, Anel, Espatula de aco carbono, Arruela, Acoplamento para redutor, Tubo guia, Prato em bronze, Polia;usinart@usinartmetalurgica.com.br;;Maria da Pena Conceicao da Mota;Proprietaria;2007-05-23 00:00:00;2023-08-23 00:00:00;Rod Universitaria, S/N, Galpao, CIA II, Simoes Filho, BA;Via Universitária - Pitanguinha, Simões Filho - BA, 43700-000, Brazil;-12.8028491;-38.3867001
01.397.753/0001-45;Paviservice Servicos de Pavimentacao Ltda;Paviservice;Via Universitaria;1200;;CIA II;Simoes Filho;BA;43700000;(71) 3295-5500;(71) 98148-9007;;690;50.000.001,00 a 100.000.000,00;F4211101;Construção de rodovias e ferrovias;Construcao de estrada, Pavimentacao;paviservice@paviservice.com.br;www.paviservice.com.br;Ronald Velame de Azevedo;Diretor Superintendente;2000-07-19 00:00:00;2023-08-09 00:00:00;Via Universitaria, 1200, CIA II, Simoes Filho, BA;Via Universitária, 1200 - Nucleo Hab. Rubens Costa Cia I, Simões Filho - BA, 43700-000, Brazil;-12.8037723;-38.3845421
15.435.607/0001-71;Pedro Ribeiro Neto;Acai Baiano;Rod BA-528, Conj Ilha de Sao Joao;S/N;;CIA Industrial;Simoes Filho;BA;43000000;(71) 99942-4979;;;1;120.001,00 a 720.000,00;C1033302;Fabricação de sucos de frutas, hortaliças e legumes, exceto concentrados;Polpa de acai, Polpa de fruta;explosaodaamazonia09@yahoo.com.br;;Pedro Ribeiro Neto;Diretor;2012-10-01 00:00:00;2022-08-09 00:00:00;Rod BA-528, Conj Ilha de Sao Joao, S/N, CIA Industrial, Simoes Filho, BA;Conjunto habitacional Ilha de São João, Simões Filho - BA, 43700-000, Brazil;-12.8169113;-38.4608386
02.370.080/0001-00;Staummaq Servicos Tecnicos Automacao Motores e Maquinas Ltda;Staummaq;Via Urbana;01;;CIA Sul;Simoes Filho;BA;43700000;(71) 2203-6300 ;(71) 2203-6301;(71) 2203-6305;11;6.000.001,00 a 12.000.000,00;C3313901;Manutenção e reparação de geradores, transformadores e motores elétricos;Manutencao e reparacao em motores e maquinas industriais;staummaq@staummaq.com.br;www.staummaq.com;Eliel Fernandes Pereira;Socio;2012-10-05 00:00:00;2022-08-12 00:00:00;Via Urbana, 01, CIA Sul, Simoes Filho, BA;Vila CIA Sul, Simões Filho - BA, 43700-000, Brazil;-12.82923;-38.4081945
02.524.491/0001-03;Retec Tecnologia em Residuos Eireli;Retec Residuos ;Via Ipitanga;S/N;;CIA Sul;Simoes Filho;BA;43700000;(71) 3594-7201;(71) 3341-1341;;108;12.000.001,00 a 25.000.000,00;E3822000;Tratamento e disposição de resíduos perigosos;Coleta de residuos nao-perigosos e perigosos, Gerenciamento de residuos, Tratamento e disposicao de residuos perigosos e nao-perigosos;idailson.gonzaga@grupogvc.eco.br;www.retecresiduos.com.br;Vitor Carvalho da Silva;Diretor Comercial;2012-10-26 00:00:00;2022-04-29 00:00:00;Via Ipitanga, S/N, CIA Sul, Simoes Filho, BA;Via Ipitanga, Simões Filho - BA, 43700-000, Brazil;-12.8419257;-38.4299882
10.888.877/0001-14;Tecnocoat do Brasil Industria e Comercio de Tintas Ltda;Tecnocoat do Brasil Industria e Comercio;Via Dica Anel III;472;;CIA Sul;Simoes Filho;BA;43700000;(71) 3594-2661;(71) 3594-9444;(71) 99106-2400;6;1.500.001,00 a 3.000.000,00;C2071100;Fabricação de tintas, vernizes, esmaltes e lacas;Tinta industrial (epox, poliuretano, esmalte sintetico), Verniz industrial;comercial1@tecnocoatdobrasil.com.br;www.tecnocoatdobrasil.com.br;Rodrigo Quadros Fernandes Costa;Socio;2012-11-06 00:00:00;2022-12-07 00:00:00;Via Dica Anel III, 472, CIA Sul, Simoes Filho, BA;Vila CIA Sul, Simões Filho - BA, 43700-000, Brazil;-12.82923;-38.4081945
03.509.978/0026-20;Facchini S/A;Facchini;Via Periferica I;5328;;CIA Sul;Simoes Filho;BA;43700000;(71) 3173-9900;(71) 3173-9928;;69;12.000.001,00 a 25.000.000,00;C2930101;Fabricação de cabines, carrocerias e reboques para caminhões;Cacamba sobre chassis, Furgao sobre chassis, Kit furgao, Carroceria sem chassi;josino@facchini.com.br;www.facchini.com.br;Josino da Silva Onca Filho;Gerente Administrativo;2010-05-11 00:00:00;2022-10-24 00:00:00;Via Periferica I, 5328, CIA Sul, Simoes Filho, BA;Via periferica I, 5328, Simões Filho - BA, 43700-000, Brazil;-12.832836;-38.4130288
03.479.246/0001-86;Vertical Equipamentos Ltda;Vertical;Via da Torres;967;;CIA Sul;Simoes Filho;BA;43700000;(71) 3392-1839;(71) 3392-4077;;135;12.000.001,00 a 25.000.000,00;F4399104;Serviços de operação e fornecimento de equipamentos para transporte e elevação de cargas e pessoas para uso em obras;Locacao e remocao de equipamento (guindaste);adm@verticalequipamentos.com.br;www.verticalequipamentos.com.br;Myla Cohim Alves;Socia Administradora;2012-12-20 00:00:00;2023-08-15 00:00:00;Via da Torres, 967, CIA Sul, Simoes Filho, BA;Simões Filho - State of Bahia, Brazil;-12.7863553;-38.40216119999999
06.086.223/0001-08;Apoio Ambiental Comercio, Servicos e Industria Ltda;Apoio Ambiental;Rod BR-324 Km 17;S/N;;CIA Sul;Simoes Filho;BA;43700000;(71) 99964-2815;(71) 98103-3158;(71) 4117-0473;46;12.000.001,00 a 25.000.000,00;E3832700;Recuperação de materiais plásticos;Resina de polietileno reciclada, Polipropileno, Residuo de PET;financeiro@apoioambiental.com.br;www.apoioambiental.com.br;Nabor de Jesus Filho;Socio;2011-01-11 00:00:00;2022-09-02 00:00:00;Rod BR-324 Km 17, S/N, CIA Sul, Simoes Filho, BA;Rod. Eng. Vasco Filho, Simões Filho - BA, Brazil;-12.7833653;-38.4133446
00.694.545/0001-45;Recapagem Pneuforte Ltda;Pneuforte;Rodovia BR-324 Km 17;S/N;;CIA Sul;Simoes Filho;BA;43700000;(75) 98158-5160;(71) 98895-1779;;30;6.000.001,00 a 12.000.000,00;C2212900;Reforma de pneumáticos usados;Reforma de pneu;eliomar@pneuforte.com;;Jose Ricardo Lima Mozart;Socio Administrador;2011-03-17 00:00:00;2022-10-05 00:00:00;Rodovia BR-324 Km 17, S/N, CIA Sul, Simoes Filho, BA;Rod. Eng. Vasco Filho, Simões Filho - BA, Brazil;-12.7709084;-38.4204074
10.454.979/0001-21;Originalle Industria e Comercio de Moveis Ltda;Originalle Moveis Planejados;Rua Dr Adalberto Ferreira de Paula;592;;CIA Sul;Simoes Filho;BA;43700000;(71) 3379-3898;(71) 3369-3743;(71) 99270-0700;14;720.001,00 a 1.500.000,00;C3101200;Fabricação de móveis com predominância de madeira;Movel planejado;rosane@originallemoveis.com.br;www.originallemoveis.com.br;Rosane Barbosa Nepomuceno;Socia;2011-03-23 00:00:00;2023-03-29 00:00:00;Rua Dr Adalberto Ferreira de Paula, 592, CIA Sul, Simoes Filho, BA;Simões Filho - State of Bahia, Brazil;-12.7863553;-38.40216119999999
02.701.679/0001-71;Resintec Industria Ltda;Resintec;Via da Adutora;S/N;Acesso C;CIA Sul;Simoes Filho;BA;43700000;(71) 99144-8617;(71) 3594-9828;(71) 99142-8693;22;1.500.001,00 a 3.000.000,00;C2229303;Fabricação de artefatos de material plástico para uso na construção, exceto tubos e acessórios;Caixa de agua, ETE-Estacao de Tratamento de Esgoto e Efluentes, Caixa de gordura simples e industrial, Reservatorio subterraneo, ETA-Estacao de Tratamento de Agua, SAO-Separador de Agua e Oleo, Revestimento em tanque, Agitadores, Vaso de pressao, Tanque i;contato@resintec.com.br;www.resintec.com.br;Antonio Fernando Almeida;Socio Administrador;2011-03-31 00:00:00;2022-12-16 00:00:00;Via da Adutora, S/N, Acesso C, CIA Sul, Simoes Filho, BA;Via da Adutora, Simões Filho - BA, 43700-000, Brazil;-12.8330314;-38.410326
00.981.451/0003-19;GCP Brasil Industria e Comercio de Produtos Quimicos;GCP;Rod CIA Aeroporto Km 1;1321;Terreo;CIA Sul;Simoes Filho;BA;43700000;(71) 3444-4700;(15) 3235-4700;(15) 3235-4774;10;3.000.001,00 a 6.000.000,00;C2099199;Fabricação de outros produtos químicos não especificados anteriormente;Aditivo de cimento e concreto;;;Jose Fernandez;Gerente de Planta;2011-07-15 00:00:00;2022-08-01 00:00:00;Rod CIA Aeroporto Km 1, 1321, Terreo, CIA Sul, Simoes Filho, BA;BA-526, KM 01 - 1321 - CIA SUL, Simões Filho - BA, 43700-000, Brazil;-12.8247503;-38.39474999999999
05.232.089/0001-35;B3 Industria de Embarcacoes Ltda;Estaleiro B3;Via Periferica I;4442;Anexo;CIA Sul;Simoes Filho;BA;43700000;(71) 98715-9399;(71) 99126-0061;;27;1.500.001,00 a 3.000.000,00;C3011302;Construção de embarcações para uso comercial e para usos especiais, exceto de grande porte;Fabricacao e manutencao de embarcacao, Lancha escolar;fiscal@grupob3.com.br;www.estaleirob3.com.br;Danilton Camilo da Cunha;Diretor Presidente;2011-07-26 00:00:00;2023-02-16 00:00:00;Via Periferica I, 4442, Anexo, CIA Sul, Simoes Filho, BA;Via Periferica I, 4442 - A Definir, Simões Filho - BA, 43700-000, Brazil;-12.823443;-38.41914
02.065.406/0001-88;Cardan Bahia Industria e Comercio de Pecas Ltda;Cardan Bahia;Rodovia BR-324;S/N;Km 17;CIA Sul;Simoes Filho;BA;43700000;(71) 3443-1300 ;(71) 3301-4084;;8;3.000.001,00 a 6.000.000,00;C3314705;Manutenção e reparação de equipamentos de transmissão para fins industriais;Fabricacao e restauracao de peca (eixo cardan e barra de direcao);sac@cardanbahia.com.br;www.cardanbahia.com.br;Alex Silvio dos Santos;Diretor;2011-07-26 00:00:00;2023-05-30 00:00:00;Rodovia BR-324, S/N, Km 17, CIA Sul, Simoes Filho, BA;Rodovia BR-324, S/N - Valéria, Simões Filho - BA, 43700-000, Brazil;-12.8571809;-38.4212909
10.328.828/0001-27;Mix Solucoes Ambientais Ltda;Mix Solucoes Ambientais;Via Periferica II;131;;CIA Sul;Simoes Filho;BA;43700000;(71) 3288-6864;(71) 3288-6264;;9;120.001,00 a 720.000,00;E3812200;Coleta de resíduos perigosos;Tratamento e disposicao de residuos industriais, Coleta e transporte de residuos industriais;adm@mixsolucoesambientais.com.br;www.mixsolucoesambientais.com.br;Lucas Borges Ferreira Costa;Socio Diretor;2012-01-23 00:00:00;2023-03-30 00:00:00;Via Periferica II, 131, CIA Sul, Simoes Filho, BA;Via Periférica 2, Simões Filho - BA, 43700-000, Brazil;-12.8162229;-38.4390191
15.120.702/0004-29;Civil Industrial e Comercial Ltda;Civil Premoldados;Via Ipitanga;S/N;;CIA Sul;Simoes Filho;BA;43700971;(71) 3594-9712 ;(71) 3215-8080;(71) 3594-9898;130;12.000.001,00 a 25.000.000,00;C2330301;Fabricação de estruturas pré-moldadas de concreto armado, em série e sob encomenda;Bloco, Piso intertravado, Meio-fio, Pisograma, Canaleta, Estrutura de concreto armado;premoldados@civil.com.br;www.civil.com.br;Eduardo Meirelles Valente;Socio;2012-07-12 00:00:00;2022-11-30 00:00:00;Via Ipitanga, S/N, CIA Sul, Simoes Filho, BA;Via Ipitanga, Simões Filho - BA, 43700-000, Brazil;-12.8419257;-38.4299882
15.920.007/0001-07;Semonordeste Brasil Industria e Com de Produtos de Limpeza Ltda;Semonordeste Brasil;Via de Penetracao C;216;Anexo a Via Periferica;CIA Sul;Simoes Filho;BA;43700000;(71) 3011-1711;(71) 99161-1711;(71) 99329-4611;45;1.500.001,00 a 3.000.000,00;C2062200;Fabricação de produtos de limpeza e polimento;Aromatizante, Amaciante, Tira mancha, Sabao de coco, Desengordurante;delfim@grupodelfim.com.br;www.grupodelfim.com.br;Carlos Alberto Delfim Monteiro;Socio Proprietario;2013-10-30 00:00:00;2023-08-04 00:00:00;Via de Penetracao C, 216, Anexo a Via Periferica, CIA Sul, Simoes Filho, BA;Vila CIA Sul, Simões Filho - BA, 43700-000, Brazil;-12.82923;-38.4081945
17.114.771/0001-02;RDA Montagem Ltda;RDA Engenharia;Rua Vivaldo Paim 1;295;Planta 3, Fazenda Rancho Alegre;CIA Sul;Simoes Filho;BA;43700000;(71) 99950-3414;;;130;3.000.001,00 a 6.000.000,00;F4292802;Obras de montagem industrial;Montagem de estrutura metalica, Servico de tratamento e revestimento, Pintura;nadija.queiroz@rdaengenharia.com;https://rdaengenharia.com/;Ricardo de Alencar Carvalho Santos;Socio;2013-11-28 00:00:00;2023-10-10 00:00:00;Rua Vivaldo Paim 1, 295, Planta 3, Fazenda Rancho Alegre, CIA Sul, Simoes Filho, BA;R. Vivaldo Pain, 1 - 295, Simões Filho - BA, 43700-000, Brazil;-12.8371526;-38.3996005
08.885.357/0001-06;PJB Construcao Aluguel de Maquinas e Servicos de Lanternagem Ltda;;Via Acesso II BR-324;1601;;CIA Sul;Simoes Filho;BA;43700000;(71) 3623-4697 ;(71) 98243-9425;;27;720.001,00 a 1.500.000,00;F4399104;Serviços de operação e fornecimento de equipamentos para transporte e elevação de cargas e pessoas para uso em obras;Construcao civil, Locacao de equipamento;contato@pjbservicos.com.br;www.pjbservicos.com.br;Paulo Jose Bahia de Souza;Administrador;2013-11-29 00:00:00;2023-07-27 00:00:00;Via Acesso II BR-324, 1601, CIA Sul, Simoes Filho, BA;Rod. Eng. Vasco Filho, 1601 - Lot. Recanto dos Eucaliptos, Simões Filho - BA, 43700-000, Brazil;-12.8009839;-38.4041669
01.685.556/0011-01;Knauf Isopor Ltda;Knauf Isopor Ltda;Rod BR-324 Km 18;S/N;;CIA Sul;Simoes Filho;BA;43700000;(71) 3594-8008;(71) 99204-8052;;21;6.000.001,00 a 12.000.000,00;C2229399;Fabricação de artefatos de material plástico para outros usos não especificados anteriormente;Pecas tecnicas, Utilidades domesticas, Embalagens em isopor;carlos.graziani@knauf.com;www.knauf-isopor.com.br;Carlos Graziani;Gerente de Unidade;2014-02-21 00:00:00;2023-11-24 00:00:00;Rod BR-324 Km 18, S/N, CIA Sul, Simoes Filho, BA;Rod. Eng. Vasco Filho, Simões Filho - BA, Brazil;-12.7833653;-38.4133446
02.271.201/0008-25;Asperbras Tubos e Conexoes Ltda;Asperbras;Via de Penetracao I;590;Galpao 1;CIA Sul;Simoes Filho;BA;43700000;(71) 2106-4000;(71) 2106-4020 ;;90;3.000.001,00 a 6.000.000,00;C2221800;Fabricação de laminados planos e tubulares de material plástico;Tubo de PVC, Conexoes, Mangueira de polietileno;sergio.assi@asperbras.com;www.asperbras.com.br;Francisco Carlos Jorge Colnaghi;Diretor;2014-03-21 00:00:00;2022-08-12 00:00:00;Via de Penetracao I, 590, Galpao 1, CIA Sul, Simoes Filho, BA;Simões Filho - State of Bahia, Brazil;-12.7863553;-38.40216119999999
17.717.804/0001-09;Ecologica Nordeste Eireli;Ecologica Nordeste;Via Dica Anel II;425;Qd 7 Lt 1;CIA Sul;Simoes Filho;BA;43700000;(71) 3450-2608;(71) 99958-5178;;61;6.000.001,00 a 12.000.000,00;E3822000;Tratamento e disposição de resíduos perigosos;Transporte, tratamento e destinacao de residuos industriais;renildo.souza@ambipar.com;;Hugo Camboim;Socio;2014-03-21 00:00:00;2023-12-21 00:00:00;Via Dica Anel II, 425, Qd 7 Lt 1, CIA Sul, Simoes Filho, BA;Simões Filho - State of Bahia, Brazil;-12.7863553;-38.40216119999999
01.568.077/0011-05;Stericycle Gestao Ambiental Ltda;Stericycle;Distrito 2.4.10 - Via de Penetracao A;S/N;Lote 04;CIA Sul;Simoes Filho;BA;43700000;(71) 99936-7691;(71) 3415-9313;(71) 3415-9304;76;12.000.001,00 a 25.000.000,00;E3822000;Tratamento e disposição de resíduos perigosos;Coleta de residuos perigosos, Tratamento de residuos hospitalares;atendimento@stericycle.com;www.stericycle.com.br;Renato Montagnini;Diretor Presidente;2014-04-08 00:00:00;2022-10-26 00:00:00;Distrito 2.4.10 - Via de Penetracao A, S/N, Lote 04, CIA Sul, Simoes Filho, BA;Via de Penetração A, 10 - 04 - Nova Brasília de Valéria, Salvador - BA, 41307, Brazil;-12.8456676;-38.4491845
06.117.418/0001-60;Wilson Comercio e Industria de Vidros do Brasil Ltda;Norvidro;Via Urbana;S/N;;CIA Sul;Simoes Filho;BA;43700000;(71) 3394-1440;;;54;6.000.001,00 a 12.000.000,00;C2319200;Fabricação de artigos de vidro;Box, Tampo de mesa, Espelho, Porta de vidro, Janela;wilsonvidrosba@hotmail.com;;Louise Martins de Oliveira Chaves;Socia Proprietaria;2014-05-07 00:00:00;2023-08-21 00:00:00;Via Urbana, S/N, CIA Sul, Simoes Filho, BA;Simoes Filho, Simões Filho - State of Bahia, Brazil;-12.7862756;-38.402154
17.424.709/0001-17;Elite Metais Ltda;Elite Metais;Via Periferica I, Penetracao C;S/N;;CIA Sul;Simoes Filho;BA;43700000;(71) 99377-3020;(71) 98717-4448;(71) 98884-3362;12;1.500.001,00 a 3.000.000,00;C2511000;Fabricação de estruturas metálicas;Caldeiraria, Estrutura metalica, Tanque, Tubulacao industrial;elitemetais.contatos@hotmail.com;www.elitemetais.com.br;Alexsandro Sousa dos Reis;Administrador;2015-07-31 00:00:00;2023-07-11 00:00:00;Via Periferica I, Penetracao C, S/N, CIA Sul, Simoes Filho, BA;Simões Filho - State of Bahia, Brazil;-12.7863553;-38.40216119999999
01.863.739/0001-90;Cobertech Comercio Industria e Servicos Ltda;Cobertech ;Via de Penetracao I;833;Setor A;CIA Sul;Simoes Filho;BA;43700000;(71) 3594-8092;(71) 99982-0310;;10;120.001,00 a 720.000,00;F4292801;Montagem de estruturas metálicas;Estrutura metalica em geral;cobertech@cobertech.com.br;www.cobertech.com.br;Manoel Carlos Bouzas Aspera;Socio Administrador;2015-05-11 00:00:00;2023-01-24 00:00:00;Via de Penetracao I, 833, Setor A, CIA Sul, Simoes Filho, BA;Vila CIA Sul, Simões Filho - BA, 43700-000, Brazil;-12.82923;-38.4081945
18.801.499/0002-82;Novakem Industria Quimica Ltda;Novakem;Via Periferica I;5352;;CIA Sul;Simoes Filho;BA;43700000;(71) 3594-9693;;;23;50.000.001,00 a 100.000.000,00;C2099199;Fabricação de outros produtos químicos não especificados anteriormente;Especialidades quimicas para construcao civil, Produtos quimicos para mineracao;financeiro1@novakem.com.br;www.novakem.com.br;Luiz Santos Leal;Socio;2015-04-16 00:00:00;2023-12-29 00:00:00;Via Periferica I, 5352, CIA Sul, Simoes Filho, BA;Via Periferica I, 5352 - A Definir, Simões Filho - BA, 43700-000, Brazil;-12.8272153;-38.412992
06.561.154/0001-39;Fincolor Industria e Comercio de Pigmentos e Aditivos Ltda;Fincolor;Via Urbana;2199;Galpao 03;CIA Sul;Simoes Filho;BA;43700000;(71) 3594-9692;(71) 3594-7381;(71) 3594-9482;5;120.001,00 a 720.000,00;C2019399;Fabricação de outros produtos químicos inorgânicos não especificados anteriormente;Pasta corante, Pigmento para tingir couro sintetico;fincolor@fincolor.com.br;www.fincolor.com.br;Giovanni Pisanu;Socio Administrador;2013-05-27 00:00:00;2023-11-07 00:00:00;Via Urbana, 2199, Galpao 03, CIA Sul, Simoes Filho, BA;Prq Pólo Calcadista - Vila CIA Sul, 3, Simões Filho - BA, 43700-000, Brazil;-12.8276848;-38.4011296
15.755.212/0001-56;Ecofibra Embalagens Ltda;Ecofibra Embalagens;Via Acesso II;2041;BR-324;CIA Sul;Simoes Filho;BA;43700000;(71) 2109-0230;;;75;6.000.001,00 a 12.000.000,00;C1731100;Fabricação de embalagens de papel;Caixa de papel, Bobina de papel ondulado, Chapa de papelao ondulado;eduardo@ecofibraembalagens.com.br;;Fernanda Bevilacqua Astolphi;Socia Diretora;2013-08-23 00:00:00;2023-03-06 00:00:00;Via Acesso II, 2041, BR-324, CIA Sul, Simoes Filho, BA;Rod. Eng. Vasco Filho, 2041 - Lot. Recanto dos Eucaliptos, Simões Filho - BA, 43700-000, Brazil;-12.8119078;-38.4046644
21.871.257/0001-99;Norib Distribuidora de Materiais Higienicos Eireli;Norib Industria e Comercio Ltda;Via Dica Anel III;1001;Lote 4 Qd 10;CIA Sul;Simoes Filho;BA;43700000;(71) 3503-1616;;;18;120.001,00 a 720.000,00;C1742799;Fabricação de produtos de papel para uso doméstico e higiênico-sanitário não especificados anteriormente;Papel higienico, Lencol, Papel toalha, Bobina;adm@flamagel.com.br;;Fernando Ney Lima Biron;Socio;2018-07-30 00:00:00;2022-11-17 00:00:00;Via Dica Anel III, 1001, Lote 4 Qd 10, CIA Sul, Simoes Filho, BA;Vila CIA Sul, Simões Filho - BA, 43700-000, Brazil;-12.82923;-38.4081945
04.377.562/0001-00;Polinor Ind e Com de Produtos Quimicos e Petroquimicos Eireli;Polinor;Via Periferica II;1221;;CIA Sul;Simoes Filho;BA;43700000;(71) 98668-0705;;;2;0,00 a 120.000,00;C2099199;Fabricação de outros produtos químicos não especificados anteriormente;Policloreto de aluminio;polinorquimica@gmail.com;;Kathy Elaine Carbonar Tararan;Proprietaria;2018-08-02 00:00:00;2022-11-11 00:00:00;Via Periferica II, 1221, CIA Sul, Simoes Filho, BA;Via Periférica 2, 1221, Simões Filho - BA, 43700-000, Brazil;-12.8153074;-38.4396339
02.524.491/0003-67;Retec Tecnologia em Residuos Eireli;Retec;Acesso 1;413;;CIA Sul;Simoes Filho;BA;43700000;(71) 3341-1341;(71) 3594-7201;(71) 2137-7006;108;1.500.001,00 a 3.000.000,00;E3822000;Tratamento e disposição de resíduos perigosos;Tratamento de residuos hospitalares e industriais;financeiro@retecresiduos.com.br;www.retecresiduos.com.br;Vitor Carvalho da Silva;Socio Gerente;2018-08-07 00:00:00;2022-08-24 00:00:00;Acesso 1, 413, CIA Sul, Simoes Filho, BA;Vila CIA Sul, Simões Filho - BA, 43700-000, Brazil;-12.82923;-38.4081945
28.675.195/0001-99;Techbras Equipamentos Industriais Ltda;Techbras;Via Periferica II;S/N;;CIA Sul;Simoes Filho;BA;43700000;(71) 99131-6249;(71) 3525-6800;;60;12.000.001,00 a 25.000.000,00;C2829199;Fabricação de outras máquinas e equipamentos de uso geral não especificados anteriormente, peças e acessórios;Trocador de calor, Vaso de pressao, Tanque de armazenamento, Reator quimico, Coluna de processo, Queimador tipo flare, Unidades modularizadas;valdir.antonio@techbras.ind.br;www.techbras.ind.br;Valdir Antonio de Jesus;Socio Administrador;2018-08-21 00:00:00;2023-12-21 00:00:00;Via Periferica II, S/N, CIA Sul, Simoes Filho, BA;Via Periférica 2, Simões Filho - BA, 43700-000, Brazil;-12.8162229;-38.4390191
07.277.109/0001-10;Stern Servicos Industriais Ltda;Stemil Servicos Industriais;Via Coletora;594;Galpao 02, Lote 13 Qd D;CIA Sul;Simoes Filho;BA;43700000;(71) 99119-1569;(71) 99939-1388;;10;720.001,00 a 1.500.000,00;C2511000;Fabricação de estruturas metálicas;Manutencao de maquina industrial;stern2015@bol.com.br;;Jose Carmo Dias;Socio Administrador;2018-08-22 00:00:00;2022-11-07 00:00:00;Via Coletora, 594, Galpao 02, Lote 13 Qd D, CIA Sul, Simoes Filho, BA;Vila CIA Sul, Simões Filho - BA, 43700-000, Brazil;-12.82923;-38.4081945
21.504.815/0001-88;Mania Mineira Industria e Comercio Eireli;Dica Mineira;Via das Torres;617;Galpao 3;CIA Sul;Simoes Filho;BA;43700000;(71) 3385-5181;(71) 3394-1079;(71) 3257-6460;6;120.001,00 a 720.000,00;C1091101;Fabricação de produtos de panificação Industrial;Pao de queijo;contato@maniamineira.com.br;www.dicamineira.com.br;Arilson Moreira de Souza;Socio Administrador;2018-09-05 00:00:00;2022-10-28 00:00:00;Via das Torres, 617, Galpao 3, CIA Sul, Simoes Filho, BA;Via das Torres, 617, Simões Filho - BA, 43700-000, Brazil;-12.8365305;-38.4262807
22.465.802/0001-00;Newhome Construtora e Incorporadora Ltda;Newhome;Acesso C, Via da Adutora;S/N;Sala 2-B;CIA Sul;Simoes Filho;BA;43700000;(71) 99332-2231;;;10;120.001,00 a 720.000,00;F4120400;Construção de edifícios;Construcao residencial;newhome.construtora@gmail.com;;Marconi Moraes Almeida;Socio;2018-04-17 00:00:00;2022-12-16 00:00:00;Acesso C, Via da Adutora, S/N, Sala 2-B, CIA Sul, Simoes Filho, BA;Via da Adutora, Simões Filho - BA, 43700-000, Brazil;-12.8330314;-38.410326
10.793.521/0001-05;Brastrak Industria, Comercio, Importacao e Exportacao Ltda;Brastrak;Via Periferica II;882;;CIA Sul;Simoes Filho;BA;43700000;(71) 3422-5900;(71) 98196-0972;(71) 98196-2449;4;1.500.001,00 a 3.000.000,00;C2853400;Fabricação de tratores, peças e acessórios, exceto agrícolas;Pecas para tratores (dentes, laminas, conchas, parafusos);brastrak@brastrak.com.br;www.brastrak.com.br;Sasa Ostrouska;Socio;2018-05-28 00:00:00;2023-11-29 00:00:00;Via Periferica II, 882, CIA Sul, Simoes Filho, BA;Via Periférica 2, 882, Simões Filho - BA, 43700-000, Brazil;-12.8187862;-38.4354132
22.506.865/0001-67;Artc Arte e Tecnica em Caldeiraria e Manutencao Eireli;Artc;Via de Penetracao A;S/N;Lote 05 Galpao 1 e 2;CIA Sul;Simoes Filho;BA;43700000;(71) 3594-9053;(71) 99617-5006;;19;720.001,00 a 1.500.000,00;C2513600;Fabricação de obras de caldeiraria pesada;Trocador de calor, Vaso de pressao, Tanque, Tubulacao, Estrutura metalica, Filtro;artc.caldeiraria@gmail.com;;Jose Marcelino de Oliveira;Proprietario;2018-05-30 00:00:00;2022-09-12 00:00:00;Via de Penetracao A, S/N, Lote 05 Galpao 1 e 2, CIA Sul, Simoes Filho, BA;Vila CIA Sul, Simões Filho - BA, 43700-000, Brazil;-12.82923;-38.4081945
20.906.279/0001-84;Bondenegocios Embalagens e Servicos Ltda;Bondenegocios;Via Acesso II BR-324;241;Galpao, Fundos;CIA Sul;Simoes Filho;BA;43700000;(71) 99258-0019;(71) 99258-0706;;8;720.001,00 a 1.500.000,00;C1733800;Fabricação de chapas e de embalagens de papelão ondulado;Caixa de papelao;tonnz@yahoo.com.br;;Airton Moraes Pereira ;Socio Administrador;2018-05-30 00:00:00;2022-09-09 00:00:00;Via Acesso II BR-324, 241, Galpao, Fundos, CIA Sul, Simoes Filho, BA;Rod. Eng. Vasco Filho, 241 - Lot. Recanto dos Eucaliptos, Simões Filho - BA, 43700-000, Brazil;-12.8176777;-38.406736
03.353.785/0006-89;ICL Brasil Ltda;;Via Periferica Waldyr Beira;1345;Nr Ant 6193 Sala L;CIA Sul;Simoes Filho;BA;43700000;(11) 2155-4500;(11) 94112-7309;;55;1.500.001,00 a 3.000.000,00;C2013402;Fabricação de adubos e fertilizantes, exceto organominerais;Fertilizante NPK (Agroblen, Agrocote, Osmocote);djalma.paiva@icl-group.com;www.iclbrasil.com.br;Carlos Eduardo Ruberti Perizzotto;Representante Legal;2018-06-15 00:00:00;2022-07-11 00:00:00;Via Periferica Waldyr Beira, 1345, Nr Ant 6193 Sala L, CIA Sul, Simoes Filho, BA;Vila CIA Sul, Simões Filho - BA, 43700-000, Brazil;-12.82923;-38.4081945
23.476.671/0001-29;Inopetro do Brasil Ltda;Inopetro do Brasil;Via de Penetracao IV;477;Lote 06;CIA Sul;Simoes Filho;BA;43700000;(71) 3641-2181;(71) 99297-2982;;20;1.500.001,00 a 3.000.000,00;C2029100;Fabricação de produtos químicos orgânicos não especificados anteriormente;Desemulsificante, Aditivo, Inibidor de corrosao, Inibidor de hidrato, Desincrustante;financeiro@inopetro.com.br;www.inopetro.com.br;Leildes Santos Teles Costa;Socio Administrador;2018-06-15 00:00:00;2023-10-23 00:00:00;Via de Penetracao IV, 477, Lote 06, CIA Sul, Simoes Filho, BA;Vila CIA Sul, Simões Filho - BA, 43700-000, Brazil;-12.82923;-38.4081945
21.845.732/0001-52;Ecoclean Industria e Comercio de Produtos de Limpeza Ltda;Ecoclean;Via Periferica Waldyr Beira;81;Galpao E;CIA Sul;Simoes Filho;BA;43700000;(71) 99161-8519;;;3;120.001,00 a 720.000,00;C2062200;Fabricação de produtos de limpeza e polimento;Desengraxante;gueltonmenezes@ecoclean.ind.br;www.ecoclean.ind.br;Guelton da Cruz Menezes;Socio Administrador;2018-06-19 00:00:00;2022-01-03 00:00:00;Via Periferica Waldyr Beira, 81, Galpao E, CIA Sul, Simoes Filho, BA;Vila CIA Sul, Simões Filho - BA, 43700-000, Brazil;-12.82923;-38.4081945
13.078.518/0001-90;Fundacao Baiana de Pesquisa Cientifica e Desenv Tecnologico, Fornecimento e Dist de Medic-Bahiafarma;Bahiafarma;Rod BR-324 - Acesso II;1241;;CIA Sul;Simoes Filho;BA;43700000;(71) 3594-1552;;;44;250.000.001,00 a 500.000.000,00;C2121101;Fabricação de medicamentos alopáticos para uso humano;Cabergolina 0,5 mg, Sevelamer 800mg, Micofenolato de sodio 180mg e 360mg, Insulina Humana Regular, Insulina Humana NPH, Teste Rapido Zika NS1, Teste Rapido Sifilis, Teste Rapido Dengue NS1, Kit de Extracao de RNA, Teste Rapido Leishmaniose, Teste Rapido H;leo.fagundes@bahiafarma.ba.gov.br;http://bahiafarma.ba.gov.br/;Leo Rocha Fagundes;Diretor Presidente;2015-09-09 00:00:00;2023-02-13 00:00:00;Rod BR-324 - Acesso II, 1241, CIA Sul, Simoes Filho, BA;Vila CIA Sul, 1241, Simões Filho - BA, 43700-000, Brazil;-12.8252263;-38.4057998
02.748.342/0004-62;Industria Baiana de Colchoes e Espumas Ltda;Flexcoil;Via Urbana;1141;Galpao 02 Lado Leste;CIA Sul;Simoes Filho;BA;43700000;(71) 2106-8000;(71) 2106-8075;(71) 2106-8016;202;50.000.001,00 a 100.000.000,00;C3104700;Fabricação de colchões;Mola, Travesseiro;analista.contabilba@ortobom.com.br;www.ortobom.com.br;Alan Dias Cerqueira;Diretor Administrativo;2015-11-30 00:00:00;2022-12-27 00:00:00;Via Urbana, 1141, Galpao 02 Lado Leste, CIA Sul, Simoes Filho, BA;Vila CIA Sul, Simões Filho - BA, 43700-000, Brazil;-12.82923;-38.4081945
92.475.250/0008-72;Multinova Industria de Embalagens Plasticas Ltda;Multinova;Via das Torres;657;Galpao 1;CIA Sul;Simoes Filho;BA;43700000;(71) 3594-8566;;;44;12.000.001,00 a 25.000.000,00;C2222600;Fabricação de embalagens de material plástico;Plastico bolha, Manta em polietileno expandido;fiscalrs@multinova.ind.br;www.multinova.ind.br;Julio Mugnol;Diretor Superintendente;2016-08-18 00:00:00;2023-04-18 00:00:00;Via das Torres, 657, Galpao 1, CIA Sul, Simoes Filho, BA;Via das Torres, 657 - CIA Sul, Simões Filho - BA, 43700-000, Brazil;-12.8377349;-38.4285436
21.820.732/0001-06;Usina Massa Top Argamassas e Revestimentos Ltda;Massa Top;Via Urbana;2479;;CIA Sul;Simoes Filho;BA;43700000;(71) 3309-3265;(71) 99999-6180;;47;720.001,00 a 1.500.000,00;C2330305;Preparação de massa de concreto e argamassa para construção;Massa de concreto, Argamassa;administrativo@massatop.com.br;www.massatop.com.br;Sandro Jose Ramos Duques;Socio Administrador;2017-03-27 00:00:00;2022-11-11 00:00:00;Via Urbana, 2479, CIA Sul, Simoes Filho, BA;Vila CIA Sul, 2479, Simões Filho - BA, 43700-000, Brazil;-12.8252263;-38.4057998
14.850.457/0001-08;Veiga Gases Ltda;Veiga Gases;Acesso Industrial de Aratu, Qd 04 Lts 11 e 12, Sesfi;S/N;;CIA Sul;Simoes Filho;BA;43700000;(71) 3594-9048;(71) 3594-9656;(71) 3594-9388;29;1.500.001,00 a 3.000.000,00;C2014200;Fabricação de gases industriais;Envasamento de gas;financeiro@veigagases.com.br;;Manuel Veiga Peleteiro Filho;Proprietario;2017-05-04 00:00:00;2022-03-24 00:00:00;Acesso Industrial de Aratu, Qd 04 Lts 11 e 12, Sesfi, S/N, CIA Sul, Simoes Filho, BA;Simões Filho - State of Bahia, Brazil;-12.7863553;-38.40216119999999
67.734.053/0002-98;B.R.A. Industrial Eireli;B. R. A.;Via Dica Anel III;1051;Qd 10 Lote 04;CIA Sul;Simoes Filho;BA;43700000;(71) 3173-8383;(11) 4591-8060;(11) 2385-1763;37;720.001,00 a 1.500.000,00;C1733800;Fabricação de chapas e de embalagens de papelão ondulado;Caixa de papelao;lucianobondezan@braindustrial.com;www.braindustrial.com;Kleber Campos;Gerente Administrativo Financeiro;2017-06-02 00:00:00;2023-05-11 00:00:00;Via Dica Anel III, 1051, Qd 10 Lote 04, CIA Sul, Simoes Filho, BA;Simões Filho - State of Bahia, Brazil;-12.7863553;-38.40216119999999
07.387.388/0001-74;Brain Storm Manutencao Industrial Especializada Ltda;Brain Storm Representacoes e Servicos;Rua Vivaldo Paim 1;532;Alegre;CIA Sul;Simoes Filho;BA;43700000;(71) 3394-1099;(71) 3396-3337;;7;120.001,00 a 720.000,00;C2815102;Fabricação de equipamentos de transmissão para fins industriais, exceto rolamentos;Caixa de transmissao, Vetor automotivo, Manutencao de equipamento industrial;;;Sandoval da Silva Gama;Socio;2017-06-16 00:00:00;2022-08-22 00:00:00;Rua Vivaldo Paim 1, 532, Alegre, CIA Sul, Simoes Filho, BA;R. Vivaldo Pain, 1 - 532, Simões Filho - BA, 43700-000, Brazil;-12.8371526;-38.3996005
13.536.632/0004-69;Nordex Energy Brasil - Comercio e Industria de Equipamentos Ltda;Nordex Energy Brasil;Via das Torres;646;;CIA Sul;Simoes Filho;BA;43700000;(71) 3295-5218;(11) 3047-2900;(11) 3047-2914;184;0,00 a 120.000,00;C2811900;Fabricação de motores e turbinas, peças e acessórios, exceto para aviões e veículos rodoviários;Montagem de geradores eolicos;lcampos@nordex-online.com;https://www.nordex-online.com/en/brazil/;Felipe Ferreira Ramalho;Diretor Presidente;2017-08-03 00:00:00;2022-05-02 00:00:00;Via das Torres, 646, CIA Sul, Simoes Filho, BA;Via das Torres, 646 - CIA Sul, Simões Filho - BA, 43700-000, Brazil;-12.8383619;-38.4255431
72.273.436/0002-46;Isoplast Industria e Comercio de Plasticos Ltda;Isoplast;Via Periferica I;2669;Galpao 3/6;CIA Sul;Simoes Filho;BA;43700000;(71) 3295-5100;;;140;6.000.001,00 a 12.000.000,00;C2229399;Fabricação de artefatos de material plástico para outros usos não especificados anteriormente;Isopor plastico, Forro;adm01.ba@isoplast.ind.br;www.isoplast.ind.br;Paulo Augusto de Carvalho Ferreira ;Socio Administrador;2017-08-14 00:00:00;2023-10-24 00:00:00;Via Periferica I, 2669, Galpao 3/6, CIA Sul, Simoes Filho, BA;Via Periferica I, 2669, Simões Filho - BA, 43700-000, Brazil;-12.8237182;-38.41761750000001
13.315.158/0001-00;D'AB Quimica Ltda;D'AB Quimica;Via Centro;4284;CIESF BL 18-B;CIA Sul;Simoes Filho;BA;43700000;(71) 99104-1152;;;5;120.001,00 a 720.000,00;C2093200;Fabricação de aditivos de uso industrial;Produtos quimicos para tratamento de agua;dabquimica@hotmail.com;www.dabquimica.com.br;Ricardo de Oliveira Barreto;Socio;2017-08-31 00:00:00;2023-09-08 00:00:00;Via Centro, 4284, CIESF BL 18-B, CIA Sul, Simoes Filho, BA;Via Centro, 4284, Cia Sul, Simões Filho - BA, 43700-000, Brazil;-12.8095896;-38.428106
26.183.428/0001-00;Impermacx Industria de Argamassas Eireli;Impermacx;Rua Dr Adalberto Ferreira de Paula;303;Lote 6A-6B, Rancho Alegre;CIA Sul;Simoes Filho;BA;43700000;(71) 3082-4353;(71) 3082-4384;(71) 3394-1368;32;6.000.001,00 a 12.000.000,00;C2330305;Preparação de massa de concreto e argamassa para construção;Massa corrida, Rejunte, Argamassa;controllerba@macxplus.com.br;www.macxplus.com.br;Harold Mac Milian Araujo Ferreira da Silva;Socio Administrador;2017-09-27 00:00:00;2022-10-21 00:00:00;Rua Dr Adalberto Ferreira de Paula, 303, Lote 6A-6B, Rancho Alegre, CIA Sul, Simoes Filho, BA;Simões Filho - State of Bahia, Brazil;-12.7863553;-38.40216119999999
14.526.388/0001-73;Acopla Industria de Maquinas e Equipamentos Ltda;Acopla;Via das Torres;646;Galpao 8;CIA Sul;Simoes Filho;BA;43700000;(71) 3594-1100;(71) 98802-1131;;23;6.000.001,00 a 12.000.000,00;C2829199;Fabricação de outras máquinas e equipamentos de uso geral não especificados anteriormente, peças e acessórios;Estrutura metalica, Tanque de armazenamento, Silo, Trocador de calor, Caldeiraria leve e pesada, Vaso de pressao, Peca para forno;acopla@acopla.com.br;www.acopla.com.br;Alberto Canovas Filho;Socio Gerente;2000-07-26 00:00:00;2023-04-25 00:00:00;Via das Torres, 646, Galpao 8, CIA Sul, Simoes Filho, BA;Via das Torres, 646 - CIA Sul, Simões Filho - BA, 43700-000, Brazil;-12.8383619;-38.4255431
02.748.342/0001-10;Industria Baiana de Colchoes e Espumas Ltda;Colchoes Ortobom;Via Urbana;1141;;CIA Sul;Simoes Filho;BA;43700000;(71) 2106-8042;(71) 2106-8016;;433;100.000.001,00 a 250.000.000,00;C3104700;Fabricação de colchões;Colchao de espuma, de mola, ortopedico, Base para colchao, Cabeceira, Travesseiro, Laminado, Bloco;analista.contabilba@ortobom.com.br;www.ortobom.com.br;Alan Dias Cerqueira;Diretor Administrativo;2000-07-26 00:00:00;2022-12-27 00:00:00;Via Urbana, 1141, CIA Sul, Simoes Filho, BA;Vila CIA Sul, 1141, Simões Filho - BA, 43700-000, Brazil;-12.8252263;-38.4057998
07.196.033/0025-75;Norsa Refrigerantes S/A;Norsa Solar;Via Urbana, QD 02 Km 3,5;S/N;;CIA Sul;Simoes Filho;BA;43700000;(71) 3432-8754;(71) 3432-8743;(71) 3432-8721;683;250.000.001,00 a 500.000.000,00;C1122401;Fabricação de refrigerantes;Refrigerante;lusantana@solarbr.com.br;www.solarbr.com.br;Andre Sales;CEO;2000-08-24 00:00:00;2023-06-09 00:00:00;Via Urbana, QD 02 Km 3,5, S/N, CIA Sul, Simoes Filho, BA;Simões Filho - State of Bahia, Brazil;-12.7863553;-38.40216119999999
59.791.962/0017-16;Engepack Embalagens Sao Paulo S/A;Engepack Embalagens;Quadra 03 do SESFI;S/N;;CIA Sul;Simoes Filho;BA;43700000;(71) 2102-3420;(71) 2102-3419;(71) 2102-3462;269;500.000.001,00 a 1.000.000.000,00;C2222600;Fabricação de embalagens de material plástico;Preforma PET;lajana@engepack.com.br;www.engepack.com.br;Lucio Jose Santos Junior;Diretor Superintendente;2000-08-28 00:00:00;2023-04-25 00:00:00;Quadra 03 do SESFI, S/N, CIA Sul, Simoes Filho, BA;Vila CIA Sul, Simões Filho - BA, 43700-000, Brazil;-12.82923;-38.4081945
01.561.279/0001-45;Bomix Industria de Embalagens Ltda;Bomix;Via das Torres;162;;CIA Sul;Simoes Filho;BA;43700000;(71) 3215-8600;;;536;500.000.001,00 a 1.000.000.000,00;C2222600;Fabricação de embalagens de material plástico;Baldes plasticos industriais de 3,2L a 20L, suas derivacoes e componentes;alexandrerosario@bomix.com.br;www.bomix.com.br;Miguel Luiz Rosario Lorenzo;Presidente;2000-09-13 00:00:00;2023-04-03 00:00:00;Via das Torres, 162, CIA Sul, Simoes Filho, BA;Via das Torres, 162, Simões Filho - BA, 43700-000, Brazil;-12.8413622;-38.4278692
02.614.487/0001-28;Gash Industria de Estruturas Pre Moldados e EPS Ltda;Gash;Acesso A;174;;CIA Sul;Simoes Filho;BA;43700000;(71) 3378-5466;(71) 3378-1204;;51;720.001,00 a 1.500.000,00;C2330301;Fabricação de estruturas pré-moldadas de concreto armado, em série e sob encomenda;EPS-Poliestireno Expandido, Pre-moldados;guilherme@refran.com.br;www.refran.com.br;Guilherme Moura Costa e Costa;Socio Diretor;2000-09-13 00:00:00;2022-08-18 00:00:00;Acesso A, 174, CIA Sul, Simoes Filho, BA;Vila CIA Sul, Simões Filho - BA, 43700-000, Brazil;-12.82923;-38.4081945
02.036.823/0001-00;Brisa Industria de Tecidos Tecnologicos S/A;Brisa;Rod BA-526 Km 01;S/N;Estrada CIA/Aeroporto;CIA Sul;Simoes Filho;BA;43700000;(71) 3390-4500;(71) 3390-4501;;150;100.000.001,00 a 250.000.000,00;C1354500;Fabricação de tecidos especiais, inclusive artefatos;Forro sintetico, Cabedal sintetico, Cabedal esportivo PU/PVC;brisa@ecobrisa.com;www.ecobrisa.com;Jose Claudio Blos;Diretor Estatutario;2000-09-22 00:00:00;2024-01-02 00:00:00;Rod BA-526 Km 01, S/N, Estrada CIA/Aeroporto, CIA Sul, Simoes Filho, BA;BA-526, KM 01 - S/N - CIA SUL, Simões Filho - BA, 43700-000, Brazil;-12.8247503;-38.39474999999999
15.107.410/0002-94;Fabrica de Biscoitos Tupy S/A;Biscoitos Tupy;Via Periferica I;569;;CIA Sul;Simoes Filho;BA;43700000;(71) 3594-9186;(71) 3594-9373;(71) 2103-6950;68;6.000.001,00 a 12.000.000,00;C1092900;Fabricação de biscoitos e bolachas;Biscoito;reginaldoadm.tupy@uol.com.br;www.biscoitostupy.com.br;Antonio Ricardo Alvarez Alban;Diretor Financeiro;2000-09-23 00:00:00;2023-08-14 00:00:00;Via Periferica I, 569, CIA Sul, Simoes Filho, BA;Via Periferica I, 569 - Cia Sul, Simões Filho - BA, 43700-000, Brazil;-12.825761;-38.4104
15.150.006/0001-12;Andequip - Locacao de Maquinas e Equipamentos Ltda;Andequip;Via Periferica Waldyr Beira;1275;;CIA Sul;Simoes Filho;BA;43700000;(71) 3246-3305;(71) 98802-5211;;14;120.001,00 a 720.000,00;F4399102;Montagem e desmontagem de andaimes e outras estruturas temporárias;Andaime, Escora, Toldo, Estrutura metalica, Balancim manual;andequip@andequip.com.br;www.andequip.com.br;Luis Henrique Lopes Coutinho;Proprietario;2000-10-06 00:00:00;2023-01-20 00:00:00;Via Periferica Waldyr Beira, 1275, CIA Sul, Simoes Filho, BA;Vila CIA Sul, 1275, Simões Filho - BA, 43700-000, Brazil;-12.8252263;-38.4057998
34.117.523/0001-34;Aquageo Projetos e Perfuracoes Ltda;Aquageo;Via Centro;2361;;CIA Sul;Simoes Filho;BA;43700000;(71) 3271-7179;;;12;3.000.001,00 a 6.000.000,00;F4399105;Perfuração e construção de poços de água;Obra de perfuracao de poco tubular para agua, Estudo geofisico e hidrogeologico, Construcao de piezometros;aquageo@aquageo.com.br;www.aquageo.com.br;Jose Mauro Passos Amancio;Socio Gerente;2000-10-06 00:00:00;2023-12-06 00:00:00;Via Centro, 2361, CIA Sul, Simoes Filho, BA;Via Centro, Simões Filho - BA, 43700-000, Brazil;-12.8199377;-38.4146153
00.175.936/0001-53;Iso Industria de Saboes e Oleos Ltda;Iso Saboes;Av Ipitanga, Lote 12-B;S/N;Distrito 245, Cx Postal 3055;CIA Sul;Simoes Filho;BA;43700000;(71) 3594-7268 ;(71) 3199-6691;;8;720.001,00 a 1.500.000,00;C2061400;Fabricação de sabões e detergentes sintéticos;Sabao marmorizado, Sabao extrusado, Sabao de coco;industrial@isosaboes.com.br;;Donato Cuozzo;Socio Gerente;2000-10-06 00:00:00;2023-11-30 00:00:00;Av Ipitanga, Lote 12-B, S/N, Distrito 245, Cx Postal 3055, CIA Sul, Simoes Filho, BA;Vila CIA Sul, 3055, Simões Filho - BA, 43700-000, Brazil;-12.8252263;-38.4057998
07.275.159/0003-20;Petroleo e Lubrificantes do Nordeste S/A Petrolusa;Petrolusa;Via das Torres;S/N;;CIA Sul;Simoes Filho;BA;43700000;(71) 3418-6868;(71) 98112-4860;(71) 3418-6866;18;3.000.001,00 a 6.000.000,00;C2073800;Fabricação de impermeabilizantes, solventes e produtos afins;Solvente (tiner), Graxa, Oleo protetor antiferrugem;petrolusa@petrolusabahia.com.br;www.petrolusa.com.br;Suzana Barros Ribeiro Lima;Gerente Geral;2001-08-15 00:00:00;2023-10-30 00:00:00;Via das Torres, S/N, CIA Sul, Simoes Filho, BA;Via das Torres, Simões Filho - BA, 43700-000, Brazil;-12.8306796;-38.4241588
03.435.931/0001-00;Physioaligned Industria e Comercio Ltda;Physio Pilates;Acesso A;286;;CIA Sul;Simoes Filho;BA;43700000;(71) 3443-0600;(71) 3443-0616;(71) 3443-0606;21;3.000.001,00 a 6.000.000,00;C3101200;Fabricação de móveis com predominância de madeira;Equipamento de pilates para condicionamento fisico e fisioterapia;thaise.barreto@gmail.com;www.physiopilates.com;Claudio Cesar Figueiredo Soares;Diretor Presidente;2002-01-15 00:00:00;2023-06-05 00:00:00;Acesso A, 286, CIA Sul, Simoes Filho, BA;Ac. A, 286 - Lot. Jardim Renatao, Simões Filho - BA, 43700-000, Brazil;-12.7598389;-38.4004263
04.722.483/0001-99;Arco Produtos Quimicos e Comercio Ltda;Arco;Rua Vivaldo Paim;295;Lt 01 Alegre Ville;CIA Sul;Simoes Filho;BA;43700000;(71) 3394-1725;(71) 3394-1518;(71) 98787-1006;5;120.001,00 a 720.000,00;C2062200;Fabricação de produtos de limpeza e polimento;Lustra moveis, Amaciante, Cera, Limpa-vidros, Desengraxante, Limpa-pneus, Aromatizante de ambiente, Xampu automotivo, Desodorizante;arcoprodutos@hotmail.com;www.arcoprodutosquimicos.com;Patricia Goes Braga;Socia Gerente;2002-02-18 00:00:00;2023-05-30 00:00:00;Rua Vivaldo Paim, 295, Lt 01 Alegre Ville, CIA Sul, Simoes Filho, BA;R. Vivaldo Pain, 295 - 01, Simões Filho - BA, 43700-000, Brazil;-12.8412348;-38.4022202
03.753.419/0001-02;Lugger Brasil Fabricacao de Moveis Ltda;Lugger;Via Periferica I;6821;Fundo do Tamina Park;CIA Sul;Simoes Filho;BA;43700000;(71) 3594-8016;(71) 3594-7085;(71) 99125-4138;7;720.001,00 a 1.500.000,00;C3102100;Fabricação de móveis com predominância de metal;Estrutura porta-paletes, Arquivo deslizante, Estante de aco, Mezanino, Sistema de aquecimento em geral;atendimento@lugger.com.br;;Luis Fernando Souza da Cruz;Gerente;2002-03-08 00:00:00;2023-03-10 00:00:00;Via Periferica I, 6821, Fundo do Tamina Park, CIA Sul, Simoes Filho, BA;Via periferica I, 6821, Simões Filho - BA, 43700-000, Brazil;-12.8394732;-38.4154107
33.868.720/0001-22;Industria e Comercio de Madeira Confianca Ltda;Pallets Confianca;Via Centro;531;Galpao;CIA Sul;Simoes Filho;BA;43700000;(71) 3594-9106 ;(71) 3594-9080;;19;1.500.001,00 a 3.000.000,00;C1623400;Fabricação de artefatos de tanoaria e de embalagens de madeira;Palete de madeira com tratamento fitossanitario;mconfianca@gmail.com;;Sueli Teixeira Oliveira Amorim;Socia;2000-09-14 00:00:00;2022-07-27 00:00:00;Via Centro, 531, Galpao, CIA Sul, Simoes Filho, BA;Via Centro, Simões Filho - BA, 43700-000, Brazil;-12.8199377;-38.4146153
04.665.804/0001-60;Immec Industria Metalurgica, Manutencao e Comercio Ltda;IMMEC;Via Urbana;2199;;CIA Sul;Simoes Filho;BA;43700000;(71) 3594-7397;(71) 3594-7192;;10;1.500.001,00 a 3.000.000,00;C2822402;Fabricação de máquinas, equipamentos e aparelhos para transporte e elevação de cargas, peças e acessórios;Grab/Clam Shell, Spreader manual, Spreader automatico, Top spreader hidraulico telescopico, Garfo hidraulico, Garra hidraulica;immec@immec.com.br;www.immec.com.br;Joao Manuel Esteves e Silva;Socio Gerente;2002-10-02 00:00:00;2023-12-07 00:00:00;Via Urbana, 2199, CIA Sul, Simoes Filho, BA;Vila CIA Sul, 2199, Simões Filho - BA, 43700-000, Brazil;-12.8252263;-38.4057998
00.635.247/0001-84;Teman Engenharia e Manutencao Ltda;Teman;Acesso A;S/N;;CIA Sul;Simoes Filho;BA;43700000;(71) 3377-1495 ;(71) 3301-6837;(71) 98334-1603;40;3.000.001,00 a 6.000.000,00;C2511000;Fabricação de estruturas metálicas;Montagem industrial, Manutencao industrial, Estrutura metalica, Tubulacao, Fabricacao de equipamentos, Parada programada de planta industrial, Recuperacao de equipamentos, Desenvolvimento de novos equipamentos, Cobertura e telhado metalico;jwilson@teman.com.br;www.teman.com.br;Jose Wilson Alves de Andrade;Socio Administrador;2007-06-26 00:00:00;2023-12-29 00:00:00;Acesso A, S/N, CIA Sul, Simoes Filho, BA;Simões Filho - State of Bahia, Brazil;-12.7863553;-38.40216119999999
02.271.463/0004-66;Cromex S/A;Cromex;Av Periferica I;4312;Parte B;CIA Sul;Simoes Filho;BA;43700000;(71) 2104-9500;(71) 98390-5575;(11) 99835-1627;188;250.000.001,00 a 500.000.000,00;C2031200;Fabricação de resinas termoplásticas;Masterbatch, Composto termoplastico;marketing@cromex.com.br;www.cromex.com.br;Sergio Wajsbrot;Presidente;2007-07-13 00:00:00;2022-12-02 00:00:00;Av Periferica I, 4312, Parte B, CIA Sul, Simoes Filho, BA;Via Periferica I, 4312, Simões Filho - BA, 43700-000, Brazil;-12.8237182;-38.41761750000001
07.062.116/0001-02;Baplast Industria e Comercio de Plasticos Ltda;Baplast;Anel I DICA Quadra 04 Lote 06;S/N;;CIA Sul;Simoes Filho;BA;43700000;(71) 99723-0667;;;5;120.001,00 a 720.000,00;C2222600;Fabricação de embalagens de material plástico;Sacola, Sacaria, Rotulo, Bobina (picotada, tecnica), Saco de fardo, Impresso para alimento;vilma@baplast.com.br;;Joao Ramalho de Souza Neto;Socio Proprietario;2007-08-07 00:00:00;2023-06-26 00:00:00;Anel I DICA Quadra 04 Lote 06, S/N, CIA Sul, Simoes Filho, BA;Simões Filho - State of Bahia, Brazil;-12.7863553;-38.40216119999999
09.632.195/0001-67;Voga Quimica Ltda;Festcor Tintas;Via das Torres;646;Galpao 8;CIA Sul;Simoes Filho;BA;43700000;(71) 3594-7305;(71) 98134-7816;;26;12.000.001,00 a 25.000.000,00;C2071100;Fabricação de tintas, vernizes, esmaltes e lacas;Selador, Cola PVA, Massa corrida, Tinta PVA e acrilica, Resina acrilica, Tinta de marcacao, Esmalte sintetico, Verniz, Zarcao, Textura lisa e rustica, Massa acrilica;arlene@festcor.com.br;;Arlene Aparecida Vilpert;Socia Proprietaria;2009-05-29 00:00:00;2023-07-18 00:00:00;Via das Torres, 646, Galpao 8, CIA Sul, Simoes Filho, BA;Via das Torres, 646 - CIA Sul, Simões Filho - BA, 43700-000, Brazil;-12.8383619;-38.4255431
05.388.956/0001-26;ITR Industria de Transformacao de Rochas Ltda;ITR;Via Ipitanga;S/N;;CIA Sul;Simoes Filho;BA;43700000;(71) 3330-4150 ;(71) 3594-4550;(71) 99914-4050;7;120.001,00 a 720.000,00;C2391503;Aparelhamento de placas e execução de trabalhos em mármore, granito, ardósia e outras pedras;Soleira, Peitoril, Bancada, Pia;adm@itrrochas.com.br;;Lucio Manoel de Oliveira;Socio Administrador;2009-08-07 00:00:00;2023-03-27 00:00:00;Via Ipitanga, S/N, CIA Sul, Simoes Filho, BA;Via Ipitanga, Simões Filho - BA, 43700-000, Brazil;-12.8419257;-38.4299882
05.468.431/0001-09;Ecocast Industria Mecanica Ltda;Ecocast;Rotatoria Lomanto;300;;CIA Sul;Simoes Filho;BA;43700000;(71) 3082-9559;(71) 3082-9508;(71) 3082-9505;38;6.000.001,00 a 12.000.000,00;C2451200;Fundição de ferro e aço;Carcaco valvula direcional, Pinhao, Difusor bomba, Fundido esfera;contato@ecocast.ind.br;www.ecocast.ind.br;Wagner Rogerio Marques da Silva;Socio Administrador;2008-10-23 00:00:00;2023-10-04 00:00:00;Rotatoria Lomanto, 300, CIA Sul, Simoes Filho, BA;Vila CIA Sul, Simões Filho - BA, 43700-000, Brazil;-12.82923;-38.4081945
04.400.335/0001-58;LTM Brasil Servicos Ambientais Ltda;LTM Brasil;Via Periferica de Penetracao A;810;;CIA Sul;Simoes Filho;BA;43700000;(71) 3342-3333;;;3;1.500.001,00 a 3.000.000,00;E3821100;Tratamento e disposição de resíduos não-perigosos;Engenharia ambiental, Coleta e tratamento de residuos;landes.cerqueira@ltmbrasil.com.br;www.herabrasil.com.br;Enrique Abellan Marichalar;Responsavel Legal;2009-03-04 00:00:00;2024-01-17 00:00:00;Via Periferica de Penetracao A, 810, CIA Sul, Simoes Filho, BA;Vila CIA Sul, 810, Simões Filho - BA, 43700-000, Brazil;-12.8252263;-38.4057998
02.751.657/0001-16;1001 Metalurgica Eireli;1001 Metalurgica;Via Urbana - Anexo 1;2199;;CIA Sul;Simoes Filho;BA;43700000;(71) 3594-7223 ;(71) 3594-7226;;10;120.001,00 a 720.000,00;C2511000;Fabricação de estruturas metálicas;Estrutura metalica em geral;carlosrsmiranda@uol.com.br;;Carlos Roberto Soares de Miranda;Socio Diretor;2009-03-16 00:00:00;2022-08-03 00:00:00;Via Urbana - Anexo 1, 2199, CIA Sul, Simoes Filho, BA;Vila CIA Sul, 2199, Simões Filho - BA, 43700-000, Brazil;-12.8252263;-38.4057998
00.496.586/0012-80;Sonoco do Brasil Ltda;Sonoco;Via DICA Qd 5 Lotes 3 e 4;S/N;;CIA Sul;Simoes Filho;BA;43700000;(71) 2141-1303;;;49;25.000.001,00 a 50.000.000,00;C1733800;Fabricação de chapas e de embalagens de papelão ondulado;Tubo de papelao, Tubete de papelao;ricardo.soares@sonoco.com;www.sonoco.com.br;Ricardo Santana Soares;Supervisor de Operacoes;2003-06-06 00:00:00;2023-05-16 00:00:00;Via DICA Qd 5 Lotes 3 e 4, S/N, CIA Sul, Simoes Filho, BA;Vila CIA Sul, Simões Filho - BA, 43700-000, Brazil;-12.82923;-38.4081945
76.726.223/0006-07;Guanabara Industrias Quimicas Ltda;Guanabara;Via Centro;5156;;CIA Sul;Simoes Filho;BA;43700000;(71) 99273-3261;(71) 3392-3811;;73;1.500.001,00 a 3.000.000,00;C2099199;Fabricação de outros produtos químicos não especificados anteriormente;Vela, Pedra sanitaria, Sabao em po, Cera liquida, Naftalina, Desumidificador;admguanabara@hotmail.com;www.guanabara.ind.br;Maria Alice Wenningkamp;Socia Gerente;2003-06-26 00:00:00;2023-04-17 00:00:00;Via Centro, 5156, CIA Sul, Simoes Filho, BA;Via Centro, 5156, Simões Filho - BA, 43700-000, Brazil;-12.8196215;-38.4158574
05.276.528/0001-01;Dipawa Nordeste Industria Comercio e Construtora Ltda;Dipawa Nordeste;Via Centro;4164;;CIA Sul;Simoes Filho;BA;43700000;(71) 3594-2250;;;102;12.000.001,00 a 25.000.000,00;C2521700;Fabricação de tanques, reservatórios metálicos e caldeiras para aquecimento central;Reservatorio de agua metalico;comercial.nordeste@dipawa.com.br;www.dipawa.com.br;Luiz Eduardo Bressiane Estort;Socio Administrador;2005-01-06 00:00:00;2022-07-28 00:00:00;Via Centro, 4164, CIA Sul, Simoes Filho, BA;Via Centro, 4164, Simões Filho - BA, 43700-000, Brazil;-12.8196215;-38.4158574
03.636.350/0001-37;Italsofa Nordeste S/A;Natuzzi Group;Via Urbana;838;;CIA Sul;Simoes Filho;BA;43700000;(71) 3594-3100;(71) 3594-3179;(71) 3594-3121;196;50.000.001,00 a 100.000.000,00;C3103900;Fabricação de móveis de outros materiais, exceto madeira e metal;Estofado com armacao de madeira, Estofado de madeira transformado em cama;lmsantos@natuzzi.com;www.natuzzi.com;Ottavio Milano;Diretor Presidente;2005-01-25 00:00:00;2023-12-05 00:00:00;Via Urbana, 838, CIA Sul, Simoes Filho, BA;Vila CIA Sul, 838, Simões Filho - BA, 43700-000, Brazil;-12.8252263;-38.4057998
08.488.131/0001-71;Bahia Alimentacao Eireli;Bahia Alimentacao;Via Dica Anel 3;S/N;Qd 6 Lote 07 B;CIA Sul;Simoes Filho;BA;43700000;(71) 98867-4700;;;47;3.000.001,00 a 6.000.000,00;C1091101;Fabricação de produtos de panificação Industrial;Paes diversos, Salgados diversos;"mac.paes@terra.com.br; mac.pedidos@terra.com.br";;Maria Aparecida Dantas da Silva;Socia Administradora;2007-05-07 00:00:00;2023-06-26 00:00:00;Via Dica Anel 3, S/N, Qd 6 Lote 07 B, CIA Sul, Simoes Filho, BA;Vila CIA Sul, Simões Filho - BA, 43700-000, Brazil;-12.82923;-38.4081945
01.301.612/0005-00;T&A Construcao Pre-Fabricados S/A;T&A Pre-Fabricados;Via das Torres;1985;;CIA Sul;Simoes Filho;BA;43700000;(71) 3594-3700;;;244;25.000.001,00 a 50.000.000,00;C2330301;Fabricação de estruturas pré-moldadas de concreto armado, em série e sob encomenda;Viga, Sapata, Bloco de concreto 14x19x39, Pilar, Meio-fio, Muro, Placa de contencao, Laje alveolar;tea@tea.com.br;www.tea.com.br;Jose Joaquim de Almeida Neto;Presidente;2007-03-07 00:00:00;2022-08-19 00:00:00;Via das Torres, 1985, CIA Sul, Simoes Filho, BA;Via das Torres, 1985, Simões Filho - BA, 43700-000, Brazil;-12.8186819;-38.4212454
07.305.883/0001-97;Sicbras Carbeto de Silicio do Brasil Ltda;Sicbras;Via Periferica Waldyr Beira;4499;;CIA Sul;Simoes Filho;BA;43700000;(71) 3594-2216;(71) 99667-6738;;125;25.000.001,00 a 50.000.000,00;C2019399;Fabricação de outros produtos químicos inorgânicos não especificados anteriormente;Carbeto de silicio;leandro@sicbras.com.br;www.sicbras.com.br;Fernando Granha Nogueira;Socio Administrador;2007-03-21 00:00:00;2022-08-01 00:00:00;Via Periferica Waldyr Beira, 4499, CIA Sul, Simoes Filho, BA;Vila CIA Sul, Simões Filho - BA, 43700-000, Brazil;-12.82923;-38.4081945
00.075.017/0001-08;Quimil Industria e Comercio S/A;Quimil Comercial;Via Periferica II;2460;;CIA Sul;Simoes Filho;BA;43700971;(71) 3413-0800;(71) 3413-0801;;54;50.000.001,00 a 100.000.000,00;C2099199;Fabricação de outros produtos químicos não especificados anteriormente;Q-Clor, Q-CI, Q-Barrilha, Q-Hipo, Q-CL, Q-Hipo 65, Q-Fluor;adm@qclor.com.br;www.quimil.com.br;Antonio Mario Campelo;Presidente;2005-02-14 00:00:00;2021-11-08 00:00:00;Via Periferica II, 2460, CIA Sul, Simoes Filho, BA;Via Periférica 2, 2460, Simões Filho - BA, 43700-000, Brazil;-12.8104977;-38.44342109999999
07.239.845/0001-83;Nassau Industria e Comercio de Produtos de Limpeza e Transportes Ltda;Nassau;Via DICA, Anel III;S/N;Lt 05 Qd 11;CIA Sul;Simoes Filho;BA;43700000;(71) 3244-7762;(71) 99609-4228;;90;1.500.001,00 a 3.000.000,00;C2052500;Fabricação de desinfestantes domissanitários;Alvejante, Desinfetante, Agua sanitaria, Detergente;jose.damaso@itazul.com.br;;Jose de Carvalho Damaso;Socio Administrador;2005-04-19 00:00:00;2023-01-31 00:00:00;Via DICA, Anel III, S/N, Lt 05 Qd 11, CIA Sul, Simoes Filho, BA;Simões Filho - State of Bahia, Brazil;-12.7863553;-38.40216119999999
39.340.746/0001-80;Industria de Moveis e Colchoes Baiana Ltda;B A Moveis;Acesso C;113;;CIA Sul;Simoes Filho;BA;43700000;(71) 3500-8380;;;20;720.001,00 a 1.500.000,00;C3101200;Fabricação de móveis com predominância de madeira;Estofado;contabilidadebaianao@gmail.com;;Rafael Bacetto;Socio Administrador;2021-11-23 00:00:00;;Acesso C, 113, CIA Sul, Simoes Filho, BA;Vila CIA Sul, Simões Filho - BA, 43700-000, Brazil;-12.82923;-38.4081945
03.164.510/0001-92;Quimbras Industria Quimica do Brasil Ltda;Quimbras Produtos Quimicos;Via de Penetracao C;553;;CIA Sul;Simoes Filho;BA;43700000;(71) 3199-2017;;;40;6.000.001,00 a 12.000.000,00;C2071100;Fabricação de tintas, vernizes, esmaltes e lacas;Tinta imobiliaria latex e acrilica, Tinta industrial, Verniz, esmalte e laca, Massa corrida latex e acrilica, Textura, Solvente, Argamassa, Impermeabilizante, Sabao em po, Sabao em barra, Agua sanitaria, Desinfetante, Detergente, Produtos de higiene pesso;quimbrasindustria@gmail.com;www.quimbras.ind.br;Robson Santos de Oliveira;Socio Administrador;2022-01-04 00:00:00;;Via de Penetracao C, 553, CIA Sul, Simoes Filho, BA;Vila CIA Sul, Simões Filho - BA, 43700-000, Brazil;-12.82923;-38.4081945
05.917.486/0008-17;Livetech da Bahia Industria e Comercio S/A;WDC;Via Urbana;4466;Terreo;CIA Sul;Simoes Filho;BA;43700000;(73) 3222-5250;(71) 98728-2845;(11) 3035-3777;321;1.000.000.001,00 a 9.999.999.999,00;C2710401;Fabricação de geradores de corrente contínua e alternada, peças e acessórios;Gerador fotovoltaico, Modem fibra optica;fiscal@wdcnet.com.br;https://ri.wdcnet.com.br;Vanderlei Rigatieri Junior;Presidente;2022-05-12 00:00:00;2023-02-02 00:00:00;Via Urbana, 4466, Terreo, CIA Sul, Simoes Filho, BA;Vila CIA Sul, Simões Filho - BA, 43700-000, Brazil;-12.82923;-38.4081945
15.216.482/0001-99;FE Intermodal Ltda;Guindastes Brasil Intermodal;Rod BR-324;S/N;Centro Empresarial;CIA Sul;Simoes Filho;BA;43700000;(71) 3295-4200;(71) 99133-6040;(71) 3219-2010;120;1.500.001,00 a 3.000.000,00;F4399104;Serviços de operação e fornecimento de equipamentos para transporte e elevação de cargas e pessoas para uso em obras;Montagem industrial, Locacao de equipamento, Movimentacao de cargas onshore e offshore;comercial@logintermodais.com.br;www.logintermodais.com.br;Isabela Goncalves de Araujo Sousa;Socia Administradora;2021-07-09 00:00:00;2023-05-19 00:00:00;Rod BR-324, S/N, Centro Empresarial, CIA Sul, Simoes Filho, BA;Rodovia BR-324, S/N - Valéria, Simões Filho - BA, 43700-000, Brazil;-12.8571809;-38.4212909
35.523.294/0001-10;Magsac Nordeste Embalagens Ltda;;Via das Torres;657;;CIA Sul;Simoes Filho;BA;43700000;(19) 3459-6000;(71) 98195-7050;;14;25.000.001,00 a 50.000.000,00;C2222600;Fabricação de embalagens de material plástico;Embalagem plastica flexivel, Composto termoplastico;fiscal@magsac.com.br;www.magsac.com.br;Oswaldo Delfin Nogueira;Socio Administrador;2021-09-30 00:00:00;2023-06-20 00:00:00;Via das Torres, 657, CIA Sul, Simoes Filho, BA;Via das Torres, 657 - CIA Sul, Simões Filho - BA, 43700-000, Brazil;-12.8377349;-38.4285436
07.887.395/0004-88;Global Vision Pack Brasil Ltda;GVP Pallets;Via Centro;4284;Galpao 13;CIA Sul;Simoes Filho;BA;43700000;(62) 3932-3161;(62) 98200-5611;;28;3.000.001,00 a 6.000.000,00;C1623400;Fabricação de artefatos de tanoaria e de embalagens de madeira;Palete;controller@gvpbrasil.com.br;www.gvpbrasil.com.br;Helio Cesar Costa da Silva;CEO;2018-10-18 00:00:00;2022-10-31 00:00:00;Via Centro, 4284, Galpao 13, CIA Sul, Simoes Filho, BA;Simões Filho - State of Bahia, Brazil;-12.7863553;-38.40216119999999
16.535.035/0001-65;E_Tech Manutencao Industrial Ltda;E_Tech Compressores;Via Periferica I;610;;CIA Sul;Simoes Filho;BA;43700000;(71) 3217-2379;(71) 98131-9171;;4;120.001,00 a 720.000,00;C3314704;Manutenção e reparação de compressores;Manutencao em compressores;contato@etechcompressores.com.br;www.etechcompressores.com.br;Edmar Santana Bemvindo ;Socio;2019-05-31 00:00:00;2023-05-25 00:00:00;Via Periferica I, 610, CIA Sul, Simoes Filho, BA;Simões Filho - State of Bahia, Brazil;-12.7863553;-38.40216119999999
91.671.578/0006-30;Killing S/A Tintas e Adesivos;;Via Urbana;1807;;CIA Sul;Simoes Filho;BA;43700000;(71) 3418-4520;;;40;25.000.001,00 a 50.000.000,00;C2091600;Fabricação de adesivos e selantes;Adesivo, Solvente;tatiana.santos@killing.com.br;www.killing.com.br;Milton Jose Killing ;Administrador;2019-08-06 00:00:00;2021-11-01 00:00:00;Via Urbana, 1807, CIA Sul, Simoes Filho, BA;Vila CIA Sul, 1807, Simões Filho - BA, 43700-000, Brazil;-12.8252263;-38.4057998
16.400.178/0002-40;Santeno Irrigacoes do Nordeste Ltda;Santeno Irrigacoes do Nordeste;Via DICA, Anel II;239;;CIA Sul;Simoes Filho;BA;43700000;(71) 3082-1301;(71) 98105-9661;;11;100.000.001,00 a 250.000.000,00;C2229399;Fabricação de artefatos de material plástico para outros usos não especificados anteriormente;Composto de resina termoplastica;marlon@santeno.com.br;www.santeno.com.br;Marlon Santos Cardoso;Gerente Industrial;2019-10-08 00:00:00;2023-01-12 00:00:00;Via DICA, Anel II, 239, CIA Sul, Simoes Filho, BA;Via Dica Anel II - Vila CIA Sul, 239, Simões Filho - BA, 42801-401, Brazil;-12.8286527;-38.4077688
13.938.511/0001-09;Vetor Industria Quimica de Precisao Ltda;Vetor Quimica;Via Penetracao C;339;Centro Industrial de Aratu;CIA Sul;Simoes Filho;BA;43700000;(71) 3435-1482;;;40;6.000.001,00 a 12.000.000,00;C2071100;Fabricação de tintas, vernizes, esmaltes e lacas;Tinta, Verniz, esmalte e laca, Biocombustivel, Cola infantil, Corretivo, La de aco, Sabonete liquido, Selador, Vaselina, Vela, Tinta grafica e industrial, Tinta automotiva;admefiscal@vetor.ind.br;www.vetor.ind.br;Edvania de Jesus Santos;Socia Administradora;2019-11-21 00:00:00;2021-12-06 00:00:00;Via Penetracao C, 339, Centro Industrial de Aratu, CIA Sul, Simoes Filho, BA;Rod. Eng. Vasco Filho, 1994 - Lot. Recanto dos Eucaliptos, Simões Filho - BA, 43700-000, Brazil;-12.7836011;-38.412831
15.183.098/0023-42;Indeba Industria e Comercio Ltda;;Via das Torres;421;;CIA Sul;Simoes Filho;BA;43700000;(71) 2106-2106;(71) 2106-2110;;33;720.001,00 a 1.500.000,00;C2061400;Fabricação de sabões e detergentes sintéticos;Amaciante, Cera, Detergente em po, Detergente liquido;setorfiscal@indeba.com.br;;Juan Jose Rosario Lorenzo;Socio Administrador;2023-07-21 00:00:00;;Via das Torres, 421, CIA Sul, Simoes Filho, BA;Via das Torres, 421, Simões Filho - BA, 43700-000, Brazil;-12.8409872;-38.42855660000001
11.732.231/0001-06;Guindastes Brasil Locacoes de Equipamentos Ltda;Guindastes Brasil;Rodovia BR-324;832-C;Centro Empresarial BR-324;CIA Sul;Simoes Filho;BA;43700000;(71) 3393-2010;(71) 99701-8605;;300;100.000.001,00 a 250.000.000,00;F4399104;Serviços de operação e fornecimento de equipamentos para transporte e elevação de cargas e pessoas para uso em obras;Locacao de equipamentos para movimentacao de transporte de cargas com operacao, Montagem de estrutura metalica, Montagem de estrutura pre-moldada, Instalacao e manutencao de cobertura de galpao, Instalacao e manutencao de painel luminoso;comercial@guindastesbrasil.com.br;www.guindastesbrasil.com.br;Cenira Goncalves Araujo Sousa;Diretora;2023-08-11 00:00:00;;Rodovia BR-324, 832-C, Centro Empresarial BR-324, CIA Sul, Simoes Filho, BA;Rod. Eng. Vasco Filho, 832 - c - Maracangalha, São Sebastião do Passé - BA, 43850-000, Brazil;-12.5891697;-38.5232655
46.467.439/0001-20;JKCM Vidros Ltda;JKCM Vidros;Acesso II BR-324;S/N;;CIA Sul;Simoes Filho;BA;43700000;(71) 98732-4178;;;30;1.500.001,00 a 3.000.000,00;C2311700;Fabricação de vidro plano e de segurança;Vidro temperado;karla@jkcm.com.br;;Josefa Karla Carmo Matos de Jesus;Socia Administrativa;2023-08-17 00:00:00;;Acesso II BR-324, S/N, CIA Sul, Simoes Filho, BA;Rodovia BR-324, S/N - Valéria, Simões Filho - BA, 43700-000, Brazil;-12.8571809;-38.4212909
10.572.047/0004-26;Logipallet - Industria & Comercio de Pallet Ltda;Logipallet;Via Periferica II;181;Galpao;CIA Sul;Simoes Filho;BA;43700000;(71) 3163-2616;(71) 99919-2616;;60;1.500.001,00 a 3.000.000,00;C1623400;Fabricação de artefatos de tanoaria e de embalagens de madeira;Palete;cotacao@distrapallet.com.br;;Celestino dos Santos Cabral;Socio Administrativo;2022-09-13 00:00:00;;Via Periferica II, 181, Galpao, CIA Sul, Simoes Filho, BA;Via Periférica 2, 181, Simões Filho - BA, 43700-000, Brazil;-12.82033;-38.43308450000001
37.010.728/0001-04;MR Solucoes Ambientais S.F. Ltda;MR Solucoes Ambientais;Via Centro;4284;;CIA Sul;Simoes Filho;BA;43700000;(71) 3055-1919;(71) 98112-5740;;24;1.500.001,00 a 3.000.000,00;E3822000;Tratamento e disposição de resíduos perigosos;Tratamento e disposicao de residuos perigosos;administrativo@marcaambiental.com.br;https://mrsolucoesambientais.com.br;Gustavo Lopes Almenara Ribeiro;Presidente;2023-10-05 00:00:00;;Via Centro, 4284, CIA Sul, Simoes Filho, BA;Via Centro, 4284, Simões Filho - BA, 43700-000, Brazil;-12.8196215;-38.4158574
59.791.962/0001-59;Engepack Embalagens Sao Paulo S/A;;Via Ipitanga;486;;CIA Sul;Simoes Filho;BA;43700000;(71) 2102-3459;(71) 2102-3461;(71) 2102-3420;138;50.000.001,00 a 100.000.000,00;C2222600;Fabricação de embalagens de material plástico;Preforma PET;fiscal@engepack.com.br;;Rui Flavio Alves Barreto;Socio Diretor;2023-11-20 00:00:00;;Via Ipitanga, 486, CIA Sul, Simoes Filho, BA;Via Ipitanga, 486 - Cia Sul, Simões Filho - BA, 43700-000, Brazil;-12.837892;-38.438659
15.194.590/0005-31;Corema Industria e Comercio Ltda;Corema;Via Centro;6650;;CIA Sul;Simoes Filho;BA;43700000;(71) 99184-5055;(71) 99184-5058;;14;720.001,00 a 1.500.000,00;C3011301;Construção de embarcações de grande porte;Construcao e manutencao de embarcacoes;coremabahia@estaleirocorema.com.br;;Fernando Santos Mata Virgem;Socio Administrador;2023-12-13 00:00:00;;Via Centro, 6650, CIA Sul, Simoes Filho, BA;Via Centro, Simões Filho - BA, 43700-000, Brazil;-12.8199377;-38.4146153
00.120.047/0002-70;T & A Construcoes Ltda;;Via do Horto;680;;CIA Sul;Simoes Filho;BA;43700000;(85) 3499-1500;(71) 3594-3700;;191;6.000.001,00 a 12.000.000,00;C2330301;Fabricação de estruturas pré-moldadas de concreto armado, em série e sob encomenda;Laje, Canaleta, Viga, Meio-fio, Sapata;claurea@tea.com.br;;Jose Joaquim de Almeida Neto;Socio Administrador;2024-01-03 00:00:00;;Via do Horto, 680, CIA Sul, Simoes Filho, BA;Vila CIA Sul, Simões Filho - BA, 43700-000, Brazil;-12.82923;-38.4081945
05.166.536/0001-03;Embalo Sacos e Sacolas Plasticas Industria, Com, Imp e Exportacao Ltda;Embalo;Via Penetracao C;538;;CIA Sul;Simoes Filho;BA;43700000;(71) 3301-4086;;;5;720.001,00 a 1.500.000,00;C2222600;Fabricação de embalagens de material plástico;Saco de rafia;embaloplastico@hotmail.com;;Severino Pereira do Nascimento;Socio Administrador;2024-01-25 00:00:00;;Via Penetracao C, 538, CIA Sul, Simoes Filho, BA;Vila CIA Sul, Simões Filho - BA, 43700-000, Brazil;-12.82923;-38.4081945
34.284.965/0001-75;Embracer Empresa de Ceramica Ltda;Embracer Produtos Ceramicos;Rua Cidade de Belmonte;748;Galpao 02;CIA Sul;Simoes Filho;BA;43700000;(71) 99999-1234;(71) 3199-5252;;12;1.500.001,00 a 3.000.000,00;C2399199;Fabricação de outros produtos de minerais não-metálicos não especificados anteriormente;Engobe refratario, Servico de moagem;embracer@embracer.ind.br;;Zelir Braz Thomasi;Socio Administrador;2024-01-25 00:00:00;;Rua Cidade de Belmonte, 748, Galpao 02, CIA Sul, Simoes Filho, BA;R. Cidade de Belmonte, 748, Salvador - BA, 43700-000, Brazil;-12.8322866;-38.3907421
43.505.539/0001-05;Vedamax Industria Ltda;Vedamax Industria;Rua Vivaldo Paim 1;1090;;CIA Sul;Simoes Filho;BA;43700000;(71) 98787-4259;;;4;120.001,00 a 720.000,00;C2330305;Preparação de massa de concreto e argamassa para construção;Argamassa;urbvieira@gmail.com;;Lucas Luan da Silva Vieira;Socio Administrador;2024-01-29 00:00:00;;Rua Vivaldo Paim 1, 1090, CIA Sul, Simoes Filho, BA;R. Vivaldo Pain, 1 - 1090, Simões Filho - BA, 43700-000, Brazil;-12.8371526;-38.3996005
09.410.326/0001-61;DMS Industria e Comercio de Refrigeracao Ltda;DMS Engenharia;Rua Cidade de Belmonte;834;;CIA Sul;Simoes Filho;BA;43700000;(71) 3215-2516;;;0;12.000.001,00 a 25.000.000,00;C2823200;Fabricação de máquinas e aparelhos de refrigeração e ventilação para uso industrial e comercial, peças e acessórios;Equipamentos de refrigeracao, Porta frigorifica;roberta@dmsengenharia.com;https://www.dmsengenharia.com/;Deny Monteiro Fernandes;Socio Administrador;2024-02-15 00:00:00;;Rua Cidade de Belmonte, 834, CIA Sul, Simoes Filho, BA;R. Cidade de Belmonte, 834, Salvador - BA, 43700-000, Brazil;-12.8340266;-38.3904702
29.336.297/0001-42;Petronor Industria e Comercio Ltda;Maxlimp;Via Penetracao C;773;;CIA Sul;Simoes Filho;BA;43700000;(71) 98471-4371;;;15;120.001,00 a 720.000,00;C2052500;Fabricação de desinfestantes domissanitários;Desinfestante domissanitario;comercialpetronor@gmail.com;www.maxlimp.ind.br;Claudio Almeida de Brito;Socio Administrador;2024-02-22 00:00:00;;Via Penetracao C, 773, CIA Sul, Simoes Filho, BA;Vila CIA Sul, Simões Filho - BA, 43700-000, Brazil;-12.82923;-38.4081945
21.436.882/0001-02;Carbongreen Tecnologia Ambiental Ltda;Carbongreen;Via de Penetracao IV;798;Setor 01;CIA Sul;Simoes Filho;BA;43700000;(71) 98149-1937;;;22;12.000.001,00 a 25.000.000,00;C2029100;Fabricação de produtos químicos orgânicos não especificados anteriormente;Apara plastica, Flake, Resinas termoplasticas recicladas;comercial@carbongreenbr.com;www.carbongreenbr.com;Thiago Barbosa Lima;Diretor Financeiro;2022-10-11 00:00:00;;Via de Penetracao IV, 798, Setor 01, CIA Sul, Simoes Filho, BA;Vila CIA Sul, Simões Filho - BA, 43700-000, Brazil;-12.82923;-38.4081945
60.619.202/0009-03;Messer Gases Ltda;Messer Gases;Via Urbana;570;;Regio CIA Sul;Simoes Filho;BA;43700000;(11) 3594-1607;(11) 3594-1670;;15;1.500.001,00 a 3.000.000,00;C2014200;Fabricação de gases industriais;Oxigenio, Argonio, Nitrogenio, Gas carbonico, Gases hospitalares e industriais;tax.compliance@messer-br.com;www.messer-br.com;Scott Michael Latta;Presidente;2006-06-02 00:00:00;2023-08-21 00:00:00;Via Urbana, 570, Regio CIA Sul, Simoes Filho, BA;Simoes Filho, Simões Filho - State of Bahia, Brazil;-12.7862756;-38.402154
